{
"type": "FeatureCollection",
"name": "noparking",
"crs": { "type": "name", "properties": { "name": "urn:ogc:def:crs:OGC:1.3:CRS84" } },
"features": [
{ "type": "Feature", "properties": { "osm_id": "10811687", "code": 2081, "fclass": "university", "name": "华中农业大学" }, "geometry": { "type": "MultiPolygon", "coordinates": [ [ [ [ 114.359732, 30.473454600000021 ], [ 114.359602217855851, 30.473074008102646 ], [ 114.359405100000117, 30.47255239999998 ], [ 114.359732, 30.473454600000021 ] ] ], [ [ [ 114.365148599999984, 30.483396399999979 ], [ 114.365200799999954, 30.4833472 ], [ 114.365253400000043, 30.483384300000044 ], [ 114.365311100000028, 30.48342849999997 ], [ 114.365400635001038, 30.483351059935565 ], [ 114.365366814914211, 30.483326089579027 ], [ 114.365503871868086, 30.483250708254378 ], [ 114.365839661405062, 30.483210733309512 ], [ 114.365960728381154, 30.483186748342611 ], [ 114.366010982597672, 30.483165047658073 ], [ 114.366023392487151, 30.483180959326411 ], [ 114.366114, 30.483123300000031 ], [ 114.366204400000044, 30.483004399999963 ], [ 114.366176899999985, 30.482742599999973 ], [ 114.366118200000017, 30.482567200000027 ], [ 114.365825, 30.482161400000024 ], [ 114.3655502, 30.481667800000039 ], [ 114.3650908, 30.481019 ], [ 114.364782100000042, 30.480549699999987 ], [ 114.364461499999976, 30.480018900000033 ], [ 114.3641579, 30.479470500000044 ], [ 114.363697299999984, 30.4778103 ], [ 114.363689599999972, 30.47758750000003 ], [ 114.3638164, 30.4767455 ], [ 114.3635655, 30.476271899999979 ], [ 114.3623995, 30.474631300000038 ], [ 114.362421899999973, 30.474451 ], [ 114.3633153, 30.4727566 ], [ 114.363411400000047, 30.472645300000028 ], [ 114.363601599999981, 30.472479100000044 ], [ 114.363675799999982, 30.471854200000031 ], [ 114.363681700000029, 30.4715458 ], [ 114.363644499999978, 30.47129050000002 ], [ 114.363419800000031, 30.4707847 ], [ 114.363155, 30.470271099999962 ], [ 114.3628173, 30.469615499999986 ], [ 114.36270780000001, 30.469339 ], [ 114.362438600000033, 30.4688063 ], [ 114.362386900000018, 30.468443 ], [ 114.36247859999996, 30.468358199999962 ], [ 114.3625884, 30.468296800000033 ], [ 114.362890400000012, 30.468222600000022 ], [ 114.363180699999972, 30.468177400000013 ], [ 114.363546, 30.468125 ], [ 114.363214199999987, 30.467727800000027 ], [ 114.363123899999977, 30.467619699999965 ], [ 114.362915599999965, 30.46736749999997 ], [ 114.362526700000032, 30.466915499999963 ], [ 114.3623246, 30.466637599999974 ], [ 114.362092299999972, 30.466307 ], [ 114.3616332, 30.466073500000018 ], [ 114.36160719999998, 30.466022499999973 ], [ 114.355849600000013, 30.464909199999962 ], [ 114.3538689, 30.464561399999962 ], [ 114.353595500000026, 30.464903400000015 ], [ 114.353590100000019, 30.465134400000032 ], [ 114.353311299999959, 30.465300800000033 ], [ 114.3529253, 30.465397799999977 ], [ 114.35263580000003, 30.465425499999959 ], [ 114.352437499999965, 30.465388600000015 ], [ 114.3519818, 30.465379299999956 ], [ 114.351660100000032, 30.4654163 ], [ 114.351392, 30.465319299999965 ], [ 114.3511883, 30.465134400000032 ], [ 114.350662900000032, 30.4649311 ], [ 114.3501429, 30.464880299999969 ], [ 114.350139200000044, 30.464588 ], [ 114.350137499999988, 30.464450500000023 ], [ 114.349939100000014, 30.46440430000002 ], [ 114.349011600000011, 30.464390400000024 ], [ 114.348400499999983, 30.4645244 ], [ 114.34754140000004, 30.464192199999967 ], [ 114.347324400000034, 30.464587399999981 ], [ 114.348333, 30.464894900000022 ], [ 114.348547599999989, 30.465172299999971 ], [ 114.34867629999998, 30.4654313 ], [ 114.3490868, 30.46563150000004 ], [ 114.349292100000028, 30.465965400000044 ], [ 114.349110800000048, 30.4661249 ], [ 114.348501, 30.4666335 ], [ 114.348430900000011, 30.4667217 ], [ 114.3483987, 30.466809499999986 ], [ 114.348392799999971, 30.466890799999963 ], [ 114.34839460000002, 30.467410200000039 ], [ 114.3479736, 30.467628199999957 ], [ 114.348231699999957, 30.468185100000028 ], [ 114.348023599999976, 30.468270800000013 ], [ 114.346892900000029, 30.468736199999974 ], [ 114.346826300000032, 30.468757300000032 ], [ 114.346758199999982, 30.4687494 ], [ 114.346711500000026, 30.468727599999973 ], [ 114.346664200000021, 30.468668200000032 ], [ 114.346592599999966, 30.468549200000044 ], [ 114.3465653, 30.4684413 ], [ 114.346522600000029, 30.468035199999971 ], [ 114.346476500000037, 30.467969400000033 ], [ 114.3464351, 30.4678788 ], [ 114.346248, 30.467894799999989 ], [ 114.346203099999983, 30.4680247 ], [ 114.346212, 30.468221799999956 ], [ 114.3461861, 30.468339199999988 ], [ 114.346126899999973, 30.468436 ], [ 114.3456399, 30.46894439999997 ], [ 114.345570600000045, 30.468978300000021 ], [ 114.344812, 30.469067 ], [ 114.344734699999989, 30.469054 ], [ 114.344556399999973, 30.468686400000028 ], [ 114.344190299999966, 30.467887600000015 ], [ 114.3439127, 30.467521199999986 ], [ 114.3428983, 30.467301 ], [ 114.342739700000024, 30.467425200000037 ], [ 114.342603799999978, 30.468593900000013 ], [ 114.342003, 30.4685754 ], [ 114.341702600000019, 30.468002099999985 ], [ 114.34138070000003, 30.4678541 ], [ 114.341080300000044, 30.467151300000022 ], [ 114.340609299999969, 30.467297400000032 ], [ 114.341683300000014, 30.470767900000034 ], [ 114.340770900000024, 30.470972900000032 ], [ 114.340688899999989, 30.47097429999997 ], [ 114.340630200000021, 30.470951599999957 ], [ 114.3405969, 30.4709102 ], [ 114.34055349999997, 30.470843499999983 ], [ 114.340490099999968, 30.470754299999975 ], [ 114.340414600000031, 30.470676400000013 ], [ 114.340319599999987, 30.4706375 ], [ 114.340269800000044, 30.470645500000032 ], [ 114.340137500000012, 30.470721899999958 ], [ 114.340083, 30.470780199999986 ], [ 114.3400535, 30.470827399999983 ], [ 114.340034600000024, 30.4709468 ], [ 114.339954200000037, 30.4710166 ], [ 114.339764499999973, 30.471023699999972 ], [ 114.3378647, 30.471051499999962 ], [ 114.337750200000016, 30.471042 ], [ 114.337666700000042, 30.470995599999956 ], [ 114.337556499999977, 30.470968600000031 ], [ 114.33731990000004, 30.4709778 ], [ 114.3367429, 30.4712151 ], [ 114.336696599999982, 30.471314799999988 ], [ 114.336684, 30.471914799999983 ], [ 114.336681200000029, 30.471974500000037 ], [ 114.336645700000034, 30.472018 ], [ 114.336593300000047, 30.4720448 ], [ 114.336078, 30.472072 ], [ 114.335919800000013, 30.4720803 ], [ 114.335249200000035, 30.472063899999974 ], [ 114.3352124, 30.472038800000028 ], [ 114.335163300000033, 30.471928699999978 ], [ 114.335089699999983, 30.471809499999974 ], [ 114.3350041, 30.4717142 ], [ 114.334895, 30.471626099999988 ], [ 114.3347357, 30.47153740000002 ], [ 114.334504499999966, 30.471440800000021 ], [ 114.334345599999963, 30.471366700000019 ], [ 114.33422429999996, 30.4712893 ], [ 114.3340904, 30.471193900000021 ], [ 114.334026, 30.471132900000036 ], [ 114.333933399999964, 30.471009899999984 ], [ 114.333810199999988, 30.470923600000038 ], [ 114.333635900000047, 30.471337900000034 ], [ 114.3339854, 30.47353 ], [ 114.3345135, 30.475196900000029 ], [ 114.335295, 30.4749549 ], [ 114.336512, 30.475010399999963 ], [ 114.336517399999977, 30.475685 ], [ 114.336442299999987, 30.476387300000024 ], [ 114.336322700000039, 30.476799799999959 ], [ 114.3362922, 30.476904800000032 ], [ 114.336127599999969, 30.47687460000002 ], [ 114.336090700000028, 30.4770258 ], [ 114.3362631, 30.477060300000019 ], [ 114.3362878, 30.476970100000017 ], [ 114.336694199999954, 30.477039100000042 ], [ 114.336626500000037, 30.4772886 ], [ 114.334945200000021, 30.4774133 ], [ 114.334791299999978, 30.47722489999996 ], [ 114.333695099999971, 30.477309799999968 ], [ 114.3334734, 30.477331 ], [ 114.333390199999968, 30.477110800000023 ], [ 114.332847199999975, 30.477233300000034 ], [ 114.333519099999975, 30.478755699999965 ], [ 114.333681399999989, 30.479098 ], [ 114.333716599999974, 30.4791833 ], [ 114.33379709999997, 30.479416899999961 ], [ 114.334290500000023, 30.47937 ], [ 114.33433279999997, 30.480448200000026 ], [ 114.335079899999968, 30.480485900000037 ], [ 114.335928800000048, 30.480481699999956 ], [ 114.3364607, 30.4805337 ], [ 114.336549100000028, 30.480546100000044 ], [ 114.336695399999968, 30.4805766 ], [ 114.336948899999982, 30.480564599999976 ], [ 114.337021300000018, 30.480535 ], [ 114.337097899999961, 30.480621 ], [ 114.33712970000002, 30.4806658 ], [ 114.337102800000011, 30.480742200000016 ], [ 114.337558499999972, 30.4810941 ], [ 114.338998700000033, 30.481262 ], [ 114.342547600000032, 30.4813668 ], [ 114.34304, 30.481821699999983 ], [ 114.343423600000037, 30.482008299999968 ], [ 114.343390400000047, 30.482284 ], [ 114.343512500000017, 30.4824413 ], [ 114.346968399999966, 30.482672 ], [ 114.347008, 30.482674400000015 ], [ 114.347673300000025, 30.4826989 ], [ 114.347787399999973, 30.4825862 ], [ 114.347918399999969, 30.4825958 ], [ 114.348186799999979, 30.482598400000033 ], [ 114.348192099999963, 30.4826538 ], [ 114.3485757, 30.482650199999966 ], [ 114.348579799999982, 30.482714100000013 ], [ 114.349703100000028, 30.482658 ], [ 114.3511186, 30.482493499999968 ], [ 114.3563057, 30.481923699999985 ], [ 114.357277500000038, 30.481875900000027 ], [ 114.358239200000028, 30.481916500000011 ], [ 114.36011, 30.48217159999998 ], [ 114.36118639999998, 30.482441099999985 ], [ 114.364537699999985, 30.483619 ], [ 114.364726100000027, 30.483635400000036 ], [ 114.3648869, 30.483577899999986 ], [ 114.365001399999983, 30.4835352 ], [ 114.365148599999984, 30.483396399999979 ] ], [ [ 114.351057299999979, 30.481527599999986 ], [ 114.351044199999961, 30.482196800000022 ], [ 114.3507612, 30.4821943 ], [ 114.350769099999937, 30.481522800000032 ], [ 114.351057299999979, 30.481527599999986 ] ], [ [ 114.349861099999956, 30.481341 ], [ 114.349855, 30.48187 ], [ 114.349797, 30.48186950000003 ], [ 114.349803099999946, 30.481340500000048 ], [ 114.349861099999956, 30.481341 ] ], [ [ 114.348191199999988, 30.482418200000044 ], [ 114.3481871, 30.482499 ], [ 114.347985, 30.482491400000061 ], [ 114.347989099999964, 30.482410600000037 ], [ 114.348191199999988, 30.482418200000044 ] ], [ [ 114.339702199999977, 30.480306 ], [ 114.339739599999959, 30.480159600000039 ], [ 114.339861899999946, 30.4801828 ], [ 114.339824499999963, 30.480329200000039 ], [ 114.339702199999977, 30.480306 ] ], [ [ 114.356141, 30.479894700000148 ], [ 114.356140843518915, 30.479833914875925 ], [ 114.356519177818896, 30.479838673797804 ], [ 114.356509399999894, 30.479897400000016 ], [ 114.356141, 30.479894700000148 ] ], [ [ 114.3574532, 30.4798746 ], [ 114.357214500000055, 30.479777500000043 ], [ 114.357244913425617, 30.479717321286476 ], [ 114.357487618448189, 30.479814879187789 ], [ 114.3574532, 30.4798746 ] ], [ [ 114.351254016491339, 30.479684681521896 ], [ 114.351250495229934, 30.47961518633398 ], [ 114.351610825655953, 30.479606914295903 ], [ 114.351606126957549, 30.479682246035328 ], [ 114.351254016491339, 30.479684681521896 ] ], [ [ 114.357949, 30.479662399999935 ], [ 114.357446900000014, 30.479465499999986 ], [ 114.357480480065234, 30.479403232433771 ], [ 114.35799206418146, 30.479598348236308 ], [ 114.357949, 30.479662399999935 ] ], [ [ 114.357373404319901, 30.479369919979643 ], [ 114.357344599999905, 30.479423300000047 ], [ 114.3568017, 30.479217100000128 ], [ 114.356833266671771, 30.479162906872187 ], [ 114.357373404319901, 30.479369919979643 ] ], [ [ 114.357929399999975, 30.479314300000087 ], [ 114.357523500000227, 30.479145499999976 ], [ 114.357559002278407, 30.479075818599416 ], [ 114.357958751727324, 30.479247139791671 ], [ 114.357929399999975, 30.479314300000087 ] ], [ [ 114.357963826215183, 30.479210680279195 ], [ 114.356879459192072, 30.478757924707317 ], [ 114.356899891579857, 30.478706050359033 ], [ 114.35800396148656, 30.479158147950042 ], [ 114.357963826215183, 30.479210680279195 ] ], [ [ 114.35768035478965, 30.478939237537578 ], [ 114.357709499999984, 30.478897300000046 ], [ 114.357870400000152, 30.478966599999918 ], [ 114.357858814365301, 30.479013000828697 ], [ 114.35768035478965, 30.478939237537578 ] ], [ [ 114.355465866860087, 30.478686470095489 ], [ 114.355451900000062, 30.478807700000093 ], [ 114.354799100000051, 30.478803300000084 ], [ 114.354794861220057, 30.478685210700501 ], [ 114.355465866860087, 30.478686470095489 ] ], [ [ 114.35443200000023, 30.478792400000071 ], [ 114.352762500000026, 30.478821800000016 ], [ 114.352755827093532, 30.478697907517965 ], [ 114.352750920602404, 30.478640237640203 ], [ 114.354442717377438, 30.478637858179219 ], [ 114.354443608590671, 30.478686938833693 ], [ 114.35443200000023, 30.478792400000071 ] ], [ [ 114.350804499999938, 30.478646900000022 ], [ 114.350803, 30.478680400000041 ], [ 114.350393299999936, 30.478666700000062 ], [ 114.350394799999961, 30.478633200000044 ], [ 114.350804499999938, 30.478646900000022 ] ], [ [ 114.350971702429788, 30.478719502245305 ], [ 114.350968276006029, 30.47875947719017 ], [ 114.350793528389744, 30.478758335048855 ], [ 114.350792386248514, 30.478717217962675 ], [ 114.350971702429788, 30.478719502245305 ] ], [ [ 114.351442645352137, 30.478736634364495 ], [ 114.352127930121782, 30.478729020089329 ], [ 114.35212749999998, 30.478808900000015 ], [ 114.351444100000094, 30.478801600000033 ], [ 114.351442645352137, 30.478736634364495 ] ], [ [ 114.348589700000176, 30.478790899999947 ], [ 114.348584392375088, 30.478827126852931 ], [ 114.348289339210424, 30.478827126852931 ], [ 114.348286965666134, 30.478790378643478 ], [ 114.348434479517664, 30.478790632685776 ], [ 114.348589700000176, 30.478790899999947 ] ], [ [ 114.343414473995281, 30.47882227275252 ], [ 114.343407800000065, 30.478873999999895 ], [ 114.342605400000025, 30.478869400000047 ], [ 114.342596642804423, 30.478825068287701 ], [ 114.343414473995281, 30.47882227275252 ] ], [ [ 114.356816200000139, 30.478869500000055 ], [ 114.356868006802287, 30.478795993985091 ], [ 114.35744764350332, 30.47903584365455 ], [ 114.357418300000134, 30.479102500000149 ], [ 114.356816200000139, 30.478869500000055 ] ], [ [ 114.342418800000118, 30.47901210000013 ], [ 114.341758700000042, 30.4790212 ], [ 114.341752896374814, 30.478967419873864 ], [ 114.342423904378464, 30.478948384185816 ], [ 114.342418800000118, 30.47901210000013 ] ], [ [ 114.356423999378649, 30.479072487354003 ], [ 114.356426100000107, 30.4791416 ], [ 114.355838800000015, 30.479139700000118 ], [ 114.355838651971226, 30.479070107892841 ], [ 114.356423999378649, 30.479072487354003 ] ], [ [ 114.3558376, 30.478791099999963 ], [ 114.355838651971226, 30.478734603891017 ], [ 114.356447793988664, 30.478736983352089 ], [ 114.356445900000054, 30.478782300000123 ], [ 114.3558376, 30.478791099999963 ] ], [ [ 114.353427618133395, 30.479319334913995 ], [ 114.353427900000014, 30.479330900000129 ], [ 114.353171099999912, 30.479328100000075 ], [ 114.353171739820809, 30.479284010536261 ], [ 114.353427618133395, 30.479319334913995 ] ], [ [ 114.352304200593153, 30.479351836076024 ], [ 114.352414900000127, 30.479355500000032 ], [ 114.352462800000097, 30.479357400000101 ], [ 114.352601633218796, 30.479354215537096 ], [ 114.35260401627761, 30.479427650772944 ], [ 114.352304240244635, 30.479424363209922 ], [ 114.352304200593153, 30.479351836076024 ] ], [ [ 114.345424300000019, 30.479359600000016 ], [ 114.3460123, 30.4793744 ], [ 114.346010699999951, 30.479422400000061 ], [ 114.345422699999972, 30.4794076 ], [ 114.345424300000019, 30.479359600000016 ] ], [ [ 114.346078299999959, 30.4794206 ], [ 114.346078599999984, 30.479384600000042 ], [ 114.3464149, 30.47938660000003 ], [ 114.346414599999974, 30.479422599999989 ], [ 114.346078299999959, 30.4794206 ] ], [ [ 114.346485800000011, 30.479481200000041 ], [ 114.346489699999978, 30.4793711 ], [ 114.347015, 30.4793851 ], [ 114.347011099999946, 30.479495200000045 ], [ 114.346485800000011, 30.479481200000041 ] ], [ [ 114.348502392976343, 30.479425884902561 ], [ 114.348497824411183, 30.479392382091635 ], [ 114.348685135581746, 30.479395427801631 ], [ 114.348688181291664, 30.479658881724131 ], [ 114.348637927075316, 30.479658881724131 ], [ 114.348637927075316, 30.479436544887722 ], [ 114.348502392976343, 30.479425884902561 ] ], [ [ 114.356030599999983, 30.479656400000149 ], [ 114.356027199999971, 30.479515400000118 ], [ 114.355823100000222, 30.479519 ], [ 114.355824375205231, 30.479479375185964 ], [ 114.356026629390712, 30.479479375185964 ], [ 114.356059941844848, 30.479472236802923 ], [ 114.356069459688868, 30.479622142846235 ], [ 114.356419240456603, 30.479622142846235 ], [ 114.356418900000136, 30.479649499999933 ], [ 114.356030599999983, 30.479656400000149 ] ], [ [ 114.354545081789936, 30.479463870618112 ], [ 114.354542100000018, 30.479480200000047 ], [ 114.3543026, 30.479482599999979 ], [ 114.354301900000124, 30.479432 ], [ 114.354182700000024, 30.479433199999978 ], [ 114.354183023003344, 30.479398768564852 ], [ 114.354299521414077, 30.479398768564852 ], [ 114.354345207065435, 30.479395342141085 ], [ 114.354345207065435, 30.479461586335482 ], [ 114.354545081789936, 30.479463870618112 ] ], [ [ 114.354808345355735, 30.479410370816812 ], [ 114.355474594437325, 30.479403232433771 ], [ 114.355469800000037, 30.479447000000143 ], [ 114.354808900000066, 30.479454400000044 ], [ 114.354808345355735, 30.479410370816812 ] ], [ [ 114.350539499999954, 30.479375900000033 ], [ 114.3505401, 30.479511100000117 ], [ 114.350591653038364, 30.479506101712822 ], [ 114.350590700000012, 30.4795388000001 ], [ 114.3501848, 30.479537500000081 ], [ 114.350182482803348, 30.479504311937294 ], [ 114.350279500000113, 30.479512000000103 ], [ 114.350278799999955, 30.479376900000027 ], [ 114.350539499999954, 30.479375900000033 ] ], [ [ 114.348282200827384, 30.47862249320637 ], [ 114.348286959749359, 30.478577400000045 ], [ 114.348410691721668, 30.478577400000045 ], [ 114.348553459381947, 30.478577400000045 ], [ 114.348574874531067, 30.47862249320637 ], [ 114.348282200827384, 30.47862249320637 ] ], [ [ 114.343591505894111, 30.478499617840132 ], [ 114.344034085641184, 30.478491051780448 ], [ 114.344039176375773, 30.478558717365317 ], [ 114.343597599999953, 30.478576800000084 ], [ 114.343591505894111, 30.478499617840132 ] ], [ [ 114.354922511894799, 30.478535446177585 ], [ 114.354918799999922, 30.478483100000059 ], [ 114.355591755575176, 30.478476528751624 ], [ 114.355593301812192, 30.478371480563876 ], [ 114.355710970093611, 30.478371358546635 ], [ 114.35570716295608, 30.4785255476197 ], [ 114.355591045258848, 30.478524786192157 ], [ 114.354922511894799, 30.478535446177585 ] ], [ [ 114.358164724207739, 30.478518096736234 ], [ 114.358162600000171, 30.477973300000066 ], [ 114.358169800000056, 30.47673780000007 ], [ 114.358179952758334, 30.476131021455149 ], [ 114.358252704609455, 30.47612722217568 ], [ 114.358318703897794, 30.476131292711766 ], [ 114.35831868004675, 30.476672923246145 ], [ 114.358318703897794, 30.476925080903211 ], [ 114.358253654330554, 30.476925093756041 ], [ 114.358255550786524, 30.478518327998355 ], [ 114.358164724207739, 30.478518096736234 ] ], [ [ 114.35837002568951, 30.476983049334333 ], [ 114.359414609071081, 30.47698066987326 ], [ 114.359414676919641, 30.477049906431347 ], [ 114.359438390928176, 30.477049773782877 ], [ 114.359436024220287, 30.477090125079581 ], [ 114.358339092696539, 30.47709726346271 ], [ 114.358339021172242, 30.477055923300483 ], [ 114.358372385822122, 30.477055736669417 ], [ 114.35837002568951, 30.476983049334333 ] ], [ [ 114.354778221379178, 30.476113250052133 ], [ 114.354761520890094, 30.477765283080199 ], [ 114.354737900000131, 30.4777652 ], [ 114.354738472698287, 30.477048386392585 ], [ 114.354739216031504, 30.476117998722568 ], [ 114.354778221379178, 30.476113250052133 ] ], [ [ 114.353437096679073, 30.477150632584632 ], [ 114.353452, 30.478086299999912 ], [ 114.353407431299502, 30.478080763152931 ], [ 114.353406900000053, 30.478032900000112 ], [ 114.353399100000118, 30.477873500000069 ], [ 114.353397100000137, 30.477688900000071 ], [ 114.353380299999984, 30.477102 ], [ 114.3533794, 30.476981900000016 ], [ 114.353379000000146, 30.476496199999975 ], [ 114.35337650000011, 30.476396700000091 ], [ 114.353381079596375, 30.476048811077266 ], [ 114.353419431271362, 30.476041554529548 ], [ 114.353421520678765, 30.476172732705425 ], [ 114.353427094198722, 30.47652265209862 ], [ 114.353437096679073, 30.477150632584632 ] ], [ [ 114.352002941211623, 30.476014702469595 ], [ 114.3520085, 30.476093400000043 ], [ 114.351578400000022, 30.47609230000004 ], [ 114.351584096153616, 30.476010292132255 ], [ 114.352002941211623, 30.476014702469595 ] ], [ [ 114.350067700000082, 30.475998700000023 ], [ 114.350062545278092, 30.476068522530358 ], [ 114.349782720663683, 30.476048535057881 ], [ 114.349782715203347, 30.475998784842201 ], [ 114.350067700000082, 30.475998700000023 ] ], [ [ 114.34609938165184, 30.475937173110129 ], [ 114.346082259132359, 30.476005616451967 ], [ 114.346077090860945, 30.476064001554409 ], [ 114.345782989480625, 30.476066856907696 ], [ 114.345782447918808, 30.476006128075245 ], [ 114.345782437445763, 30.475934317757019 ], [ 114.34609938165184, 30.475937173110129 ] ], [ [ 114.345023465527476, 30.476044014082198 ], [ 114.344697955261978, 30.476061146201388 ], [ 114.344697470085194, 30.476009729113645 ], [ 114.344864322572121, 30.476000301500999 ], [ 114.345022909379367, 30.475991340921521 ], [ 114.345023465527476, 30.476044014082198 ] ], [ [ 114.344546637395737, 30.476046239673199 ], [ 114.344721499999963, 30.476706 ], [ 114.344761699999907, 30.476872500000113 ], [ 114.344785799999954, 30.476909500000065 ], [ 114.344907810298437, 30.477413380576618 ], [ 114.344872528375276, 30.477415286357573 ], [ 114.344522756481609, 30.476085562829486 ], [ 114.344382523763187, 30.47608388012431 ], [ 114.344776588507401, 30.477430514907994 ], [ 114.344748000000109, 30.477434900000016 ], [ 114.344380800000096, 30.476165200000121 ], [ 114.34434866624018, 30.476049285383372 ], [ 114.344371509065766, 30.476046239673199 ], [ 114.344511611729899, 30.476043193963203 ], [ 114.344546637395737, 30.476046239673199 ] ], [ [ 114.343570090745175, 30.476155372857111 ], [ 114.342737279393205, 30.476298140517471 ], [ 114.342437467306311, 30.476374283269752 ], [ 114.341966334027077, 30.476455184943735 ], [ 114.341604655954342, 30.47654084554004 ], [ 114.341495200748113, 30.476574157994168 ], [ 114.341477038012087, 30.476525677425897 ], [ 114.341616, 30.476473800000164 ], [ 114.341953839426438, 30.476396332102379 ], [ 114.342429953675975, 30.476292671161215 ], [ 114.342728753919005, 30.476230686456201 ], [ 114.342969904821459, 30.476182141628666 ], [ 114.343564656550029, 30.476088248248839 ], [ 114.343570090745175, 30.476155372857111 ] ], [ [ 114.339165759185448, 30.476530991398892 ], [ 114.338473336032592, 30.476702312591325 ], [ 114.338451, 30.476649500000047 ], [ 114.339156900000063, 30.476483900000023 ], [ 114.339165759185448, 30.476530991398892 ] ], [ [ 114.3438107, 30.476921 ], [ 114.343752499999979, 30.4762141 ], [ 114.344237799999988, 30.476191100000044 ], [ 114.344431899999975, 30.476906399999987 ], [ 114.3438107, 30.476921 ] ], [ [ 114.347719899999973, 30.4777513 ], [ 114.3476966, 30.477413700000039 ], [ 114.3477555, 30.477410700000057 ], [ 114.347778799999972, 30.477748300000012 ], [ 114.347719899999973, 30.4777513 ] ], [ [ 114.348496768518118, 30.477783898134852 ], [ 114.348487100000128, 30.477559 ], [ 114.348562200000217, 30.477559 ], [ 114.348574906257241, 30.477784589807793 ], [ 114.348496768518118, 30.477783898134852 ] ], [ [ 114.352088369868667, 30.478228119487444 ], [ 114.352083228297147, 30.477600670468391 ], [ 114.352126886331575, 30.477603795187896 ], [ 114.352132977751651, 30.478226642900768 ], [ 114.352088369868667, 30.478228119487444 ] ], [ [ 114.352894, 30.477303700000085 ], [ 114.352893290090165, 30.477238541580181 ], [ 114.353331110915178, 30.477236162119286 ], [ 114.353327600000071, 30.477300199999885 ], [ 114.352894, 30.477303700000085 ], [ 114.352904400000043, 30.478244200000098 ], [ 114.352843399500898, 30.478240272099161 ], [ 114.352790851130621, 30.478238825741105 ], [ 114.352789328275634, 30.477608363753156 ], [ 114.352837381146117, 30.477609878546868 ], [ 114.352834426327149, 30.477300375559008 ], [ 114.352894, 30.477303700000085 ] ], [ [ 114.348389199999929, 30.477434 ], [ 114.348406699999956, 30.47764690000006 ], [ 114.348350400000015, 30.477688500000038 ], [ 114.348259200000015, 30.477693099999975 ], [ 114.348219, 30.4776376 ], [ 114.348047299999976, 30.477639900000014 ], [ 114.348047299999976, 30.47744580000003 ], [ 114.348389199999929, 30.477434 ] ], [ [ 114.348654678696917, 30.477551204898973 ], [ 114.348714818564318, 30.47755045084482 ], [ 114.3487290614312, 30.477743589342904 ], [ 114.348664699999986, 30.477743299999954 ], [ 114.348654678696917, 30.477551204898973 ] ], [ [ 114.351440411831135, 30.477580669999643 ], [ 114.351440379050146, 30.477539070519516 ], [ 114.351971438619444, 30.477536697224977 ], [ 114.351971507527622, 30.477580669999643 ], [ 114.351440411831135, 30.477580669999643 ] ], [ [ 114.35491230000018, 30.478212700000068 ], [ 114.355588200000057, 30.478206100000055 ], [ 114.355581908128585, 30.478246103719147 ], [ 114.354910329054377, 30.478256763704664 ], [ 114.35491230000018, 30.478212700000068 ] ], [ [ 114.33613034573996, 30.477772158724608 ], [ 114.335907407212588, 30.477792590372449 ], [ 114.335885775289398, 30.477712696774933 ], [ 114.336116107114748, 30.477695564655832 ], [ 114.33613034573996, 30.477772158724608 ] ], [ [ 114.344036940994471, 30.477727720689845 ], [ 114.344042500000086, 30.477671800000078 ], [ 114.344398, 30.477670700000075 ], [ 114.344394811929675, 30.477739142102639 ], [ 114.344036940994471, 30.477727720689845 ] ], [ [ 114.335649732757489, 30.477743153875775 ], [ 114.335657694688777, 30.477815475776953 ], [ 114.335322689047501, 30.477846178040085 ], [ 114.335305186804021, 30.477765996701539 ], [ 114.335649732757489, 30.477743153875775 ] ], [ [ 114.343946400000135, 30.477848699999971 ], [ 114.34399119721958, 30.477814335795333 ], [ 114.344509299999984, 30.477815799999913 ], [ 114.344520900000148, 30.477942899999949 ], [ 114.343945300000129, 30.477937500000035 ], [ 114.343946400000135, 30.477848699999971 ] ], [ [ 114.333719300000098, 30.47791180000004 ], [ 114.333766555953744, 30.478172162128875 ], [ 114.333729084181741, 30.478178539719064 ], [ 114.33367767983998, 30.477924943208606 ], [ 114.333719300000098, 30.47791180000004 ] ], [ [ 114.343789765757847, 30.478120233404621 ], [ 114.343793499999919, 30.478070500000026 ], [ 114.344843933376907, 30.47807336669846 ], [ 114.344846246444504, 30.478124992326588 ], [ 114.343789765757847, 30.478120233404621 ] ], [ [ 114.344622200000089, 30.477948599999976 ], [ 114.344622584645293, 30.477902547461039 ], [ 114.3446441001187, 30.477904122826477 ], [ 114.344641054408527, 30.477925442797154 ], [ 114.344764405667064, 30.477926965652241 ], [ 114.344758373754232, 30.477821756399553 ], [ 114.344623300000094, 30.477816900000093 ], [ 114.344623500000026, 30.477785699999909 ], [ 114.344785799999954, 30.477785699999909 ], [ 114.344792500000054, 30.477946300000141 ], [ 114.344622200000089, 30.477948599999976 ] ], [ [ 114.35283239711363, 30.477110040312422 ], [ 114.352828161941687, 30.476712791580912 ], [ 114.352881900000142, 30.47671180000005 ], [ 114.352884900000035, 30.47710480000006 ], [ 114.35283239711363, 30.477110040312422 ] ], [ [ 114.351799600000206, 30.476806400000061 ], [ 114.351913829392814, 30.476802157947663 ], [ 114.35192239545259, 30.47703058620424 ], [ 114.351791049204849, 30.477024875497843 ], [ 114.3518, 30.47696240000009 ], [ 114.351799757533485, 30.476867838028149 ], [ 114.351799600000206, 30.476806400000061 ], [ 114.351226851697021, 30.476819152300077 ], [ 114.351223404987437, 30.476764038982523 ], [ 114.351794475628793, 30.476752617569641 ], [ 114.351799600000206, 30.476806400000061 ] ], [ [ 114.345671400000128, 30.47657190000011 ], [ 114.345672979066777, 30.476510229808401 ], [ 114.346110799891704, 30.476510229808401 ], [ 114.3461122, 30.4765803 ], [ 114.345671400000128, 30.47657190000011 ] ], [ [ 114.345494519491126, 30.476510229808401 ], [ 114.345502799999949, 30.476563700000142 ], [ 114.345097099999947, 30.47656020000003 ], [ 114.345097149503289, 30.476505470886522 ], [ 114.345494519491126, 30.476510229808401 ] ], [ [ 114.352896699999945, 30.476509700000026 ], [ 114.35282592899577, 30.476503346714129 ], [ 114.352821565375379, 30.476094049838803 ], [ 114.352871874941044, 30.476096400297475 ], [ 114.352896699999945, 30.476509700000026 ] ], [ [ 114.351178620358979, 30.476115629513028 ], [ 114.350781250370787, 30.476118008974101 ], [ 114.350783629831852, 30.476041866221909 ], [ 114.351173861436749, 30.476044245682804 ], [ 114.351178620358979, 30.476115629513028 ] ], [ [ 114.3478242, 30.476114700000029 ], [ 114.347828199999967, 30.47624890000003 ], [ 114.347665, 30.476247900000036 ], [ 114.347659, 30.476117100000049 ], [ 114.347725399999987, 30.476116800000025 ], [ 114.3478242, 30.476114700000029 ] ], [ [ 114.346664595646558, 30.47621470075153 ], [ 114.346665996284486, 30.476244523094348 ], [ 114.346489345932625, 30.476241429800815 ], [ 114.346492513026504, 30.476210132186271 ], [ 114.346664595646558, 30.47621470075153 ] ], [ [ 114.351584399999979, 30.476491099999908 ], [ 114.351580100000078, 30.4762239 ], [ 114.351687400000074, 30.476227300000108 ], [ 114.351680700000045, 30.476490800000061 ], [ 114.351584399999979, 30.476491099999908 ] ], [ [ 114.351816100000065, 30.476501200000122 ], [ 114.351830900000124, 30.476219200000148 ], [ 114.35200920000014, 30.476213500000121 ], [ 114.352007104264203, 30.476304374705304 ], [ 114.351908118686424, 30.476296760430138 ], [ 114.351900600000036, 30.476501200000122 ], [ 114.351816100000065, 30.476501200000122 ] ], [ [ 114.345539729250362, 30.476269904246905 ], [ 114.34553420000006, 30.476336200000148 ], [ 114.3451083, 30.476333500000102 ], [ 114.345111426269185, 30.476272283707978 ], [ 114.345539729250362, 30.476269904246905 ] ], [ [ 114.349322997603082, 30.47599954265397 ], [ 114.349665649231397, 30.475998920173236 ], [ 114.349671361888596, 30.476062811823962 ], [ 114.349323008797427, 30.476045679704772 ], [ 114.349322997603082, 30.47599954265397 ] ], [ [ 114.355890979471511, 30.476026616732238 ], [ 114.355891157148321, 30.475843035289568 ], [ 114.356600236528152, 30.475847794211536 ], [ 114.356612100000135, 30.476032500000066 ], [ 114.355890979471511, 30.476026616732238 ] ], [ [ 114.358762632006119, 30.475954736704974 ], [ 114.359464573002825, 30.475949977783007 ], [ 114.359462227510136, 30.476024834242526 ], [ 114.358762673143431, 30.476027073681383 ], [ 114.358762632006119, 30.475954736704974 ] ], [ [ 114.355392230178268, 30.475875440375827 ], [ 114.354874459463431, 30.475894476063875 ], [ 114.354874459463431, 30.475822140449221 ], [ 114.355396037315899, 30.475818333311771 ], [ 114.355392230178268, 30.475875440375827 ] ], [ [ 114.3598919, 30.47583240000003 ], [ 114.359792599999949, 30.475742200000028 ], [ 114.359795299999988, 30.475531900000036 ], [ 114.359977699999988, 30.475423200000012 ], [ 114.359795299999988, 30.475427900000046 ], [ 114.35979, 30.475078800000027 ], [ 114.360100599999939, 30.475232899999988 ], [ 114.360100599999939, 30.475484800000046 ], [ 114.359991099999931, 30.475536500000061 ], [ 114.359940199999983, 30.4756452 ], [ 114.359974499999979, 30.4757622 ], [ 114.360082300000016, 30.4758255 ], [ 114.3598919, 30.47583240000003 ] ], [ [ 114.358732000000117, 30.474964 ], [ 114.358746400000072, 30.474765899999984 ], [ 114.359319, 30.474764400000126 ], [ 114.359319700000157, 30.474962400000077 ], [ 114.358732000000117, 30.474964 ], [ 114.3587327, 30.475164100000068 ], [ 114.358630247843635, 30.475158424235676 ], [ 114.358629380328424, 30.474975686555577 ], [ 114.358732000000117, 30.474964 ] ], [ [ 114.357515136111971, 30.474977073286841 ], [ 114.357515759018142, 30.475040144254667 ], [ 114.357517991465173, 30.475074155295761 ], [ 114.35746659510734, 30.475082721355445 ], [ 114.357415198749763, 30.475105564181298 ], [ 114.357386645217701, 30.475134117713193 ], [ 114.357378079157925, 30.475176948011256 ], [ 114.357383841402466, 30.475483626475746 ], [ 114.357347399999952, 30.475483900000061 ], [ 114.357343900000018, 30.475175899999979 ], [ 114.357353060993404, 30.475121612632577 ], [ 114.357326642653803, 30.47511177576801 ], [ 114.35734952562585, 30.475074155295761 ], [ 114.357369513098334, 30.475045601763778 ], [ 114.357418054102794, 30.475019903584993 ], [ 114.357515136111971, 30.474977073286841 ] ], [ [ 114.356502300000102, 30.475088800000055 ], [ 114.356333300000074, 30.475091100000068 ], [ 114.356258199999985, 30.475028700000145 ], [ 114.356164300000117, 30.475107299999987 ], [ 114.356285, 30.475211299999888 ], [ 114.356293000000193, 30.475521000000111 ], [ 114.356242100000074, 30.475551100000114 ], [ 114.356234000000114, 30.475604300000075 ], [ 114.356258199999985, 30.475643599999952 ], [ 114.355950167781231, 30.47563808438159 ], [ 114.355949921657484, 30.474894276597514 ], [ 114.356722778471948, 30.474879459035403 ], [ 114.356724900000046, 30.475028700000145 ], [ 114.356502300000102, 30.475035600000094 ], [ 114.356502300000102, 30.475088800000055 ] ], [ [ 114.357524799999979, 30.474933 ], [ 114.357526, 30.4747499 ], [ 114.357580217552567, 30.474746649453582 ], [ 114.357578313983709, 30.474933199196524 ], [ 114.357524799999979, 30.474933 ] ], [ [ 114.356986800000229, 30.474907500000064 ], [ 114.3568606, 30.474910600000143 ], [ 114.356857369025306, 30.474867031144864 ], [ 114.357003943823116, 30.474865127576006 ], [ 114.357262829180542, 30.47472807062222 ], [ 114.357428439666663, 30.474709034934083 ], [ 114.357420720669666, 30.474753789838754 ], [ 114.357277, 30.474759100000131 ], [ 114.356986800000229, 30.474907500000064 ] ], [ [ 114.352849500000119, 30.474696099999893 ], [ 114.352797185252825, 30.474683913641037 ], [ 114.352773847089608, 30.473781319378862 ], [ 114.35284249999998, 30.473778100000143 ], [ 114.352838565357501, 30.473671223918291 ], [ 114.353666652007064, 30.473670294207139 ], [ 114.352646400000012, 30.473667800000076 ], [ 114.352647899999965, 30.473585100000072 ], [ 114.353669500000109, 30.473576900000104 ], [ 114.353666652007064, 30.473670294207139 ], [ 114.353895073564118, 30.47367003775317 ], [ 114.353899299999938, 30.473760699999946 ], [ 114.35393363883793, 30.473760668830035 ], [ 114.353940700000081, 30.473890300000011 ], [ 114.353974360789081, 30.473890080477123 ], [ 114.353969623413079, 30.474688124232646 ], [ 114.353929069562227, 30.474685708472965 ], [ 114.353907, 30.474691300000117 ], [ 114.353907300000074, 30.474451100000049 ], [ 114.353900600000046, 30.474337599999895 ], [ 114.353901299999933, 30.474108400000116 ], [ 114.353901599999958, 30.474001400000056 ], [ 114.353899299999938, 30.473760699999946 ], [ 114.353558600000085, 30.4737634 ], [ 114.353564, 30.473873200000106 ], [ 114.3529887, 30.4738836 ], [ 114.352984699999936, 30.473779600000089 ], [ 114.35284249999998, 30.473778100000143 ], [ 114.352849500000119, 30.474696099999893 ], [ 114.353387110034831, 30.474696327300116 ], [ 114.353387149643325, 30.474723886871363 ], [ 114.352850369115217, 30.47471633661441 ], [ 114.352849500000119, 30.474696099999893 ] ], [ [ 114.356872597575645, 30.474657638576424 ], [ 114.356873000000135, 30.474613100000042 ], [ 114.357057, 30.474614100000036 ], [ 114.357347200000206, 30.474467700000091 ], [ 114.357543100000072, 30.474463600000018 ], [ 114.357544557363639, 30.474484413815045 ], [ 114.357358007620775, 30.474497738796785 ], [ 114.357053436612006, 30.474655735007477 ], [ 114.356872597575645, 30.474657638576424 ] ], [ [ 114.358077793576058, 30.474616582610953 ], [ 114.358225277452647, 30.474615788600229 ], [ 114.358223900000084, 30.474644400000145 ], [ 114.357811260034254, 30.474648355507799 ], [ 114.357806542883395, 30.474618042946449 ], [ 114.358077793576058, 30.474616582610953 ] ], [ [ 114.355765399999981, 30.473878400000093 ], [ 114.355765128708455, 30.473801624485258 ], [ 114.355542500000098, 30.473803600000032 ], [ 114.355534400000138, 30.472774200000035 ], [ 114.355759719329555, 30.472773631397537 ], [ 114.355765128708455, 30.473801624485258 ], [ 114.355762382752815, 30.473024519046415 ], [ 114.3559159, 30.473028499999938 ], [ 114.3559159, 30.473690600000097 ], [ 114.356542400000222, 30.473692299999971 ], [ 114.356543124674857, 30.473878204582189 ], [ 114.356518010287218, 30.473965648487461 ], [ 114.355916482544941, 30.473965648487461 ], [ 114.355912687069093, 30.473878492208112 ], [ 114.356543124674857, 30.473878204582189 ], [ 114.355765399999981, 30.473878400000093 ], [ 114.35575302510766, 30.474600873019281 ], [ 114.355600862905717, 30.474600956644476 ], [ 114.355605621827593, 30.47403464492518 ], [ 114.355416573650658, 30.474029489426218 ], [ 114.354725578174538, 30.474029489426218 ], [ 114.354725363811426, 30.473885182720878 ], [ 114.355765399999981, 30.473878400000093 ] ], [ [ 114.3575432, 30.473998100000049 ], [ 114.35754439999991, 30.4738151 ], [ 114.357632370368677, 30.47381366475706 ], [ 114.357624400260107, 30.473996431930455 ], [ 114.3575432, 30.473998100000049 ], [ 114.35753674725126, 30.474150990568877 ], [ 114.357538323166565, 30.474228340982595 ], [ 114.357332737735575, 30.474243569533016 ], [ 114.356955831112245, 30.47438062648698 ], [ 114.356868266947345, 30.47438062648698 ], [ 114.356872125553579, 30.474329650375292 ], [ 114.356873100000058, 30.474147600000073 ], [ 114.357057200000014, 30.474148600000067 ], [ 114.357347399999952, 30.474002200000122 ], [ 114.3575432, 30.473998100000049 ] ], [ [ 114.357616295752905, 30.47424718092358 ], [ 114.35763424948243, 30.473770573710507 ], [ 114.357733299999907, 30.47377030000003 ], [ 114.3577335, 30.473989500000048 ], [ 114.357897700000095, 30.473984900000023 ], [ 114.357906300000096, 30.47424310000007 ], [ 114.357727600000231, 30.474245700000019 ], [ 114.357616295752905, 30.47424718092358 ] ], [ [ 114.358080400000034, 30.474009100000071 ], [ 114.358525800000194, 30.474002700000074 ], [ 114.358510900000212, 30.474219900000016 ], [ 114.358084600000112, 30.474226 ], [ 114.358080400000034, 30.474009100000071 ] ], [ [ 114.359732, 30.473454600000021 ], [ 114.35970606040658, 30.473454429204466 ], [ 114.359377731046621, 30.472552457018725 ], [ 114.3589326686579, 30.471689657459638 ], [ 114.358951268796218, 30.471689483520198 ], [ 114.358800200000161, 30.47139880000001 ], [ 114.358858990625691, 30.471405071727236 ], [ 114.359326659433364, 30.47224454468434 ], [ 114.359459909249793, 30.472530080005061 ], [ 114.359718794607303, 30.473238207600378 ], [ 114.359802551634488, 30.473504707233051 ], [ 114.359806358772289, 30.473950142333411 ], [ 114.3597493, 30.473952 ], [ 114.3596039360243, 30.473951084138534 ], [ 114.359602994171752, 30.47399162427023 ], [ 114.358758285514597, 30.473994003731303 ], [ 114.358755520589767, 30.473945738722247 ], [ 114.358752500000037, 30.473802700000046 ], [ 114.359421599999976, 30.473805900000045 ], [ 114.359616001891723, 30.473797856829027 ], [ 114.359624200000127, 30.473508400000032 ], [ 114.359735200000074, 30.473511899999966 ], [ 114.359732, 30.473454600000021 ] ], [ [ 114.357585756937695, 30.47361140860772 ], [ 114.3567577045077, 30.473620926451744 ], [ 114.356758300000152, 30.47356249999989 ], [ 114.357582600000143, 30.473560899999935 ], [ 114.357585756937695, 30.47361140860772 ] ], [ [ 114.355097551391296, 30.470994175995219 ], [ 114.355239113458168, 30.471541261669582 ], [ 114.355233, 30.471565 ], [ 114.355211600000075, 30.471502499999975 ], [ 114.3551774, 30.471372500000054 ], [ 114.355143200000015, 30.47124710000007 ], [ 114.35508346039785, 30.4710037923488 ], [ 114.355097551391296, 30.470994175995219 ] ], [ [ 114.357846478873199, 30.471699814976422 ], [ 114.357842700000077, 30.471448899999981 ], [ 114.358306200000143, 30.47145140000001 ], [ 114.358303322136862, 30.471695542801275 ], [ 114.357846478873199, 30.471699814976422 ] ], [ [ 114.357556300000098, 30.471641400000099 ], [ 114.357567, 30.471878099999966 ], [ 114.357072499999944, 30.471879 ], [ 114.357071899999895, 30.471642300000084 ], [ 114.357556300000098, 30.471641400000099 ] ], [ [ 114.355533500000234, 30.471822500000073 ], [ 114.35448570000014, 30.47209680000012 ], [ 114.354445865518557, 30.471929872023612 ], [ 114.355488893554323, 30.471641816633493 ], [ 114.355533500000234, 30.471822500000073 ] ], [ [ 114.358011923726394, 30.47228261904063 ], [ 114.358005800000072, 30.4719761 ], [ 114.35838110000013, 30.471976300000097 ], [ 114.358380900000029, 30.472282800000055 ], [ 114.358011923726394, 30.47228261904063 ] ], [ [ 114.358512100000127, 30.472214800000113 ], [ 114.35851220000005, 30.471998300000141 ], [ 114.358858599999934, 30.47199849999998 ], [ 114.358976084624359, 30.471995973602223 ], [ 114.358981100000122, 30.472215 ], [ 114.358512100000127, 30.472214800000113 ] ], [ [ 114.356552399999899, 30.471832700000029 ], [ 114.356537499999916, 30.472053300000074 ], [ 114.3561972, 30.472046 ], [ 114.3562035, 30.471825300000127 ], [ 114.356552399999899, 30.471832700000029 ] ], [ [ 114.3565331, 30.472206200000112 ], [ 114.356531655712274, 30.47226225421738 ], [ 114.355882062857489, 30.472252736373356 ], [ 114.355888200000095, 30.472192500000045 ], [ 114.35620341651024, 30.472199196334643 ], [ 114.3565331, 30.472206200000112 ] ], [ [ 114.357973100000123, 30.472282600000128 ], [ 114.357973, 30.472466700000084 ], [ 114.357930073566322, 30.47246815384424 ], [ 114.357924362859848, 30.47227779696367 ], [ 114.357973100000123, 30.472282600000128 ] ], [ [ 114.353639700000045, 30.472409 ], [ 114.353670388768364, 30.472486038300111 ], [ 114.353556, 30.472542600000146 ], [ 114.352962643172901, 30.472743256325924 ], [ 114.352912797319945, 30.472654812072935 ], [ 114.353639700000045, 30.472409 ] ], [ [ 114.354869498606377, 30.47255673238794 ], [ 114.355522799999974, 30.472550700000017 ], [ 114.355516593253924, 30.472679684249432 ], [ 114.354877078197191, 30.472684138644684 ], [ 114.354869498606377, 30.47255673238794 ] ], [ [ 114.357069899999914, 30.472646700000144 ], [ 114.357069300000035, 30.47241 ], [ 114.357553700000054, 30.472409100000025 ], [ 114.357564399999973, 30.472645799999892 ], [ 114.357069899999914, 30.472646700000144 ] ], [ [ 114.356582506380306, 30.47122725530485 ], [ 114.356810934636883, 30.471172051809653 ], [ 114.356831873893611, 30.471240580286501 ], [ 114.356603445637134, 30.471301494488184 ], [ 114.356582506380306, 30.47122725530485 ] ], [ [ 114.356911823783435, 30.47121012318566 ], [ 114.356900402370641, 30.471154919690196 ], [ 114.357320961920323, 30.471090104984771 ], [ 114.357332205722201, 30.471133631309716 ], [ 114.356911823783435, 30.47121012318566 ] ], [ [ 114.357399137397437, 30.4711168483141 ], [ 114.357380101709381, 30.471061644818903 ], [ 114.358316657561275, 30.470907455745749 ], [ 114.358337596818004, 30.470953141396922 ], [ 114.357399137397437, 30.4711168483141 ] ], [ [ 114.357358280465633, 30.470893112354563 ], [ 114.357189814626409, 30.470930231946319 ], [ 114.357173348228912, 30.470864537509495 ], [ 114.357363800000158, 30.470819799999976 ], [ 114.357358280465633, 30.470893112354563 ] ], [ [ 114.356741399999905, 30.470887800000096 ], [ 114.356611600000093, 30.470915200000054 ], [ 114.356554300000056, 30.470689300000103 ], [ 114.356877600000075, 30.470621200000064 ], [ 114.356884291833211, 30.470667539451274 ], [ 114.356692983168472, 30.470716080455734 ], [ 114.356741399999905, 30.470887800000096 ] ], [ [ 114.359453880394426, 30.472854483133155 ], [ 114.35948690000005, 30.473106200000061 ], [ 114.359078600000103, 30.473105899999947 ], [ 114.359073500000036, 30.472861300000137 ], [ 114.359336, 30.472857200000064 ], [ 114.359453880394426, 30.472854483133155 ] ], [ [ 114.357157448282933, 30.473275268221972 ], [ 114.356772133520082, 30.473278703652667 ], [ 114.356769601812701, 30.473216418080678 ], [ 114.357559582866699, 30.473211659158711 ], [ 114.357559587655487, 30.473271682784958 ], [ 114.357157448282933, 30.473275268221972 ] ], [ [ 114.349252869230469, 30.473524348531772 ], [ 114.349018, 30.4735723 ], [ 114.348675900000032, 30.473564800000169 ], [ 114.348673187788336, 30.473416379477808 ], [ 114.349250501861761, 30.473416253147573 ], [ 114.349252869230469, 30.473524348531772 ] ], [ [ 114.347212721756492, 30.473532943292941 ], [ 114.347194647552669, 30.473690367055589 ], [ 114.346382765308832, 30.473666050834641 ], [ 114.346389100000096, 30.473514600000012 ], [ 114.346504400000043, 30.473517500000163 ], [ 114.347212721756492, 30.473532943292941 ] ], [ [ 114.350002100000069, 30.473623600000149 ], [ 114.350110439069255, 30.473598995752798 ], [ 114.350129474757296, 30.474139133401184 ], [ 114.35011757745221, 30.474395163405493 ], [ 114.35002450000006, 30.474399 ], [ 114.350016900000142, 30.474137 ], [ 114.3501, 30.474140500000019 ], [ 114.350088499999941, 30.473916800000072 ], [ 114.3500056, 30.473917799999978 ], [ 114.350002100000069, 30.473623600000149 ] ], [ [ 114.347924266439833, 30.474167095240695 ], [ 114.347908923472318, 30.474255475063178 ], [ 114.3476183, 30.474253800000067 ], [ 114.347619024566285, 30.474159417361296 ], [ 114.347924266439833, 30.474167095240695 ] ], [ [ 114.348917929355792, 30.474258466543308 ], [ 114.348996153043757, 30.474250607989678 ], [ 114.348998100000045, 30.474479600000098 ], [ 114.348925543630955, 30.474467859111925 ], [ 114.348917929355792, 30.474258466543308 ] ], [ [ 114.35171058217891, 30.473681555118187 ], [ 114.351706018469059, 30.473593018108108 ], [ 114.352188055267888, 30.473588762953213 ], [ 114.352182286528887, 30.473623305912817 ], [ 114.351768831384462, 30.47362787447781 ], [ 114.351767689243232, 30.473682697259324 ], [ 114.35171058217891, 30.473681555118187 ] ], [ [ 114.351044336839564, 30.474548605211776 ], [ 114.351082096783628, 30.474734444676837 ], [ 114.351004500000059, 30.474733699999984 ], [ 114.351005989034107, 30.474620001623403 ], [ 114.35100730000002, 30.474519900000058 ], [ 114.351044336839564, 30.474548605211776 ] ], [ [ 114.348999058254677, 30.474585676331106 ], [ 114.349000450362965, 30.474749565455244 ], [ 114.348936965043919, 30.474749587294841 ], [ 114.348933157906117, 30.47458968751538 ], [ 114.348999058254677, 30.474585676331106 ] ], [ [ 114.347905230751707, 30.474623951753848 ], [ 114.347904872442058, 30.474729987856325 ], [ 114.347420900000103, 30.474720600000055 ], [ 114.347425531412782, 30.474612530340966 ], [ 114.347905230751707, 30.474623951753848 ] ], [ [ 114.351983152289748, 30.474854981484306 ], [ 114.351982100000029, 30.474672 ], [ 114.352017101173189, 30.474677962346025 ], [ 114.352023763663922, 30.474988244061013 ], [ 114.351983899999908, 30.474985 ], [ 114.351983152289748, 30.474854981484306 ] ], [ [ 114.354628664169269, 30.474924722057178 ], [ 114.354624630483173, 30.474782137721018 ], [ 114.355405090636481, 30.474791795385375 ], [ 114.35540515223795, 30.474931781039732 ], [ 114.354628664169269, 30.474924722057178 ] ], [ [ 114.351004640515299, 30.474813948542462 ], [ 114.35114550460689, 30.475445933385675 ], [ 114.351153118881967, 30.475613447440391 ], [ 114.351168347432477, 30.475716240155887 ], [ 114.350349812846403, 30.47571243301817 ], [ 114.350332400000042, 30.475631400000097 ], [ 114.350860016858419, 30.475624958045483 ], [ 114.351094100000097, 30.475622099999949 ], [ 114.351094100000097, 30.475455700000037 ], [ 114.35096, 30.474850000000103 ], [ 114.351004640515299, 30.474813948542462 ] ], [ [ 114.349001645130102, 30.47486004411773 ], [ 114.349004159547036, 30.475054224875159 ], [ 114.348936965043919, 30.475050351166072 ], [ 114.348936965043919, 30.47486380142313 ], [ 114.349001645130102, 30.47486004411773 ] ], [ [ 114.347378459090834, 30.475038490574807 ], [ 114.348388185193116, 30.475055225888386 ], [ 114.348388036311945, 30.475193931552408 ], [ 114.347387500000011, 30.475186000000104 ], [ 114.347378459090834, 30.475038490574807 ] ], [ [ 114.345644824085326, 30.475465416539166 ], [ 114.34564210648513, 30.475860191798137 ], [ 114.345384667708089, 30.475855560770398 ], [ 114.345384667708089, 30.475455811321389 ], [ 114.345644824085326, 30.475465416539166 ] ], [ [ 114.349866122254298, 30.475836820826757 ], [ 114.35012180000011, 30.475834500000115 ], [ 114.350121384589741, 30.475898982761112 ], [ 114.349873920645294, 30.475906597036367 ], [ 114.349866122254298, 30.475836820826757 ] ], [ [ 114.353035335980763, 30.475856558559538 ], [ 114.35302870000011, 30.475729700000148 ], [ 114.353807200000048, 30.47572 ], [ 114.353806281346536, 30.475856558559538 ], [ 114.353035335980763, 30.475856558559538 ] ], [ [ 114.356304014254775, 30.47575010940578 ], [ 114.356311800000071, 30.475669 ], [ 114.356505800000036, 30.475676 ], [ 114.356504400000105, 30.475723100000135 ], [ 114.356717100000111, 30.475719099999981 ], [ 114.356716707971572, 30.475762292246028 ], [ 114.356503508265419, 30.475759246536121 ], [ 114.356304014254775, 30.47575010940578 ] ], [ [ 114.355399568435999, 30.475713790899267 ], [ 114.354622912363652, 30.475719501605663 ], [ 114.35462295346278, 30.475552899762853 ], [ 114.35539944153156, 30.475559958745141 ], [ 114.355399568435999, 30.475713790899267 ] ], [ [ 114.358756300000081, 30.475667099999942 ], [ 114.358770599999943, 30.475445299999976 ], [ 114.359343200000154, 30.475443800000029 ], [ 114.359344, 30.475665499999987 ], [ 114.358756300000081, 30.475667099999942 ] ], [ [ 114.358512100000127, 30.475550700000081 ], [ 114.358263, 30.475551700000075 ], [ 114.358039688290916, 30.475531135541051 ], [ 114.358044392740368, 30.475478668467343 ], [ 114.35850360284347, 30.475475221698783 ], [ 114.358512100000127, 30.475550700000081 ] ], [ [ 114.35196850000014, 30.475728500000049 ], [ 114.351972367306175, 30.475822007197589 ], [ 114.351361321719963, 30.475822007197589 ], [ 114.351362100000159, 30.475731 ], [ 114.351729681080656, 30.475729484576824 ], [ 114.35196850000014, 30.475728500000049 ], [ 114.351961600000109, 30.47532180000006 ], [ 114.352023763663922, 30.475325175739481 ], [ 114.352023763663922, 30.475724925188491 ], [ 114.35196850000014, 30.475728500000049 ] ], [ [ 114.347984276436904, 30.47573816451164 ], [ 114.347929548833918, 30.475740543972446 ], [ 114.34792954189254, 30.475597667541759 ], [ 114.3479896, 30.475597500000045 ], [ 114.34799170000008, 30.475673400000108 ], [ 114.347984276436904, 30.47573816451164 ] ], [ [ 114.349208700000148, 30.47560090000006 ], [ 114.349429156405634, 30.475596633464047 ], [ 114.349552166821624, 30.475594252819388 ], [ 114.349554784162635, 30.47564762760469 ], [ 114.349217852484074, 30.475670470430277 ], [ 114.349208700000148, 30.47560090000006 ] ], [ [ 114.351392, 30.474993300000147 ], [ 114.351440247770626, 30.474992623439029 ], [ 114.351474700790618, 30.475219217482202 ], [ 114.351443000000103, 30.475219800000147 ], [ 114.351392, 30.474993300000147 ] ], [ [ 114.349400600000038, 30.474688600000071 ], [ 114.349399799999972, 30.4746093 ], [ 114.349709813978379, 30.474609674987768 ], [ 114.349695473147889, 30.474686469342021 ], [ 114.349400600000038, 30.474688600000071 ] ], [ [ 114.358284763877933, 30.47503396641314 ], [ 114.358629, 30.475032600000112 ], [ 114.35862949559133, 30.475082572114292 ], [ 114.358284772774383, 30.475079037949953 ], [ 114.357661353990849, 30.475076658488792 ], [ 114.357663734340548, 30.475036431531738 ], [ 114.358284763877933, 30.47503396641314 ] ], [ [ 114.354898, 30.477946100000036 ], [ 114.355573899999939, 30.477939500000023 ], [ 114.355577339563425, 30.477981126941561 ], [ 114.354899669069027, 30.477988741216816 ], [ 114.354898, 30.477946100000036 ] ], [ [ 114.355573912389673, 30.477768140451605 ], [ 114.355573800000016, 30.477742599999985 ], [ 114.355692, 30.477740500000078 ], [ 114.355690400000071, 30.477629700000058 ], [ 114.355712873662469, 30.477632773850299 ], [ 114.355710967648108, 30.477768622507067 ], [ 114.355573912389673, 30.477768140451605 ] ], [ [ 114.354987613947699, 30.477050757688279 ], [ 114.355033788185025, 30.477045998271418 ], [ 114.355033712158729, 30.477628967759568 ], [ 114.354989993408864, 30.477628966712849 ], [ 114.354987613947699, 30.477050757688279 ] ], [ [ 114.354857771519519, 30.476870185151444 ], [ 114.354855900000047, 30.476815499999926 ], [ 114.355531900000102, 30.476816800000034 ], [ 114.355533919158901, 30.476867139441449 ], [ 114.354857771519519, 30.476870185151444 ] ], [ [ 114.35484254296918, 30.476576274128192 ], [ 114.35484419999996, 30.476525899999945 ], [ 114.355536400000119, 30.476529600000074 ], [ 114.355533919158901, 30.476574751273105 ], [ 114.35484254296918, 30.476576274128192 ] ], [ [ 114.354841020114094, 30.476282363104584 ], [ 114.354842400000081, 30.476242200000097 ], [ 114.355217139371433, 30.476244316251805 ], [ 114.355533000000108, 30.476246100000065 ], [ 114.355533919158901, 30.476288454524752 ], [ 114.354841020114094, 30.476282363104584 ] ], [ [ 114.348571603547484, 30.478353243272554 ], [ 114.348566784363598, 30.478408817608088 ], [ 114.348264592815895, 30.478404058685943 ], [ 114.348264432780084, 30.478349941133015 ], [ 114.348571603547484, 30.478353243272554 ] ], [ [ 114.345048599999927, 30.478358300000036 ], [ 114.345044499999943, 30.478531200000042 ], [ 114.344823, 30.4785274 ], [ 114.344827, 30.478354499999988 ], [ 114.345048599999927, 30.478358300000036 ] ], [ [ 114.34041550000002, 30.47842240000001 ], [ 114.339590299999955, 30.478432400000038 ], [ 114.339586700000012, 30.4783761 ], [ 114.34041550000002, 30.478366900000037 ], [ 114.34041550000002, 30.47842240000001 ] ], [ [ 114.344730844510451, 30.478475298423252 ], [ 114.344736502530026, 30.478522460665808 ], [ 114.344356740553749, 30.478513894606035 ], [ 114.344362566726986, 30.478478035351181 ], [ 114.344730844510451, 30.478475298423252 ] ], [ [ 114.349883102192024, 30.478418176821403 ], [ 114.349885424544723, 30.478366717659316 ], [ 114.350101005316446, 30.478365599280682 ], [ 114.350104392065646, 30.47842293574346 ], [ 114.349883102192024, 30.478418176821403 ] ], [ [ 114.349309803893675, 30.478362507412943 ], [ 114.349304893167712, 30.478411038438363 ], [ 114.348762376058261, 30.478411038438363 ], [ 114.348764826975412, 30.478355549037111 ], [ 114.349309803893675, 30.478362507412943 ] ], [ [ 114.349573772261365, 30.478408658977379 ], [ 114.349571479914971, 30.478365601913065 ], [ 114.349790324541218, 30.478366857990974 ], [ 114.349795062134817, 30.478413417899436 ], [ 114.349573772261365, 30.478408658977379 ] ], [ [ 114.342205197575836, 30.46956531126806 ], [ 114.343233586685983, 30.46952203791054 ], [ 114.343241680710008, 30.469596480600419 ], [ 114.342205187495637, 30.469642166251592 ], [ 114.342205197575836, 30.46956531126806 ] ] ] ] } }
]
}
