{
"type": "FeatureCollection",
"name": "parking",
"crs": { "type": "name", "properties": { "name": "urn:ogc:def:crs:OGC:1.3:CRS84" } },
"features": [
{ "type": "Feature", "properties": { "Id": 0, "osm_id": null, "code": 0, "fclass": null, "name": null, "calming": null }, "geometry": { "type": "MultiPolygon", "coordinates": [ [ [ [ 114.353899299999966, 30.473760699999957 ], [ 114.353901599999972, 30.47400140000002 ], [ 114.353901299999961, 30.474108400000148 ], [ 114.353900600000088, 30.474337599999899 ], [ 114.35390730000006, 30.474451100000067 ], [ 114.353907, 30.474691300000075 ], [ 114.353929069562241, 30.474685708472975 ], [ 114.353940700000066, 30.473890300000051 ], [ 114.35393363883793, 30.473760668830039 ], [ 114.353899299999966, 30.473760699999957 ] ] ] ] } },
{ "type": "Feature", "properties": { "Id": 0, "osm_id": null, "code": 0, "fclass": null, "name": null, "calming": null }, "geometry": { "type": "MultiPolygon", "coordinates": [ [ [ [ 114.353929069562241, 30.474685708472975 ], [ 114.353969623413036, 30.474688124232671 ], [ 114.353974360789039, 30.473890080477133 ], [ 114.353940700000066, 30.473890300000051 ], [ 114.353934984532657, 30.474281182213417 ], [ 114.353929069562241, 30.474685708472975 ] ] ] ] } },
{ "type": "Feature", "properties": { "Id": 0, "osm_id": null, "code": 0, "fclass": null, "name": null, "calming": null }, "geometry": { "type": "MultiPolygon", "coordinates": [ [ [ [ 114.353669500000137, 30.473576900000069 ], [ 114.352647899999965, 30.473585100000037 ], [ 114.352646400000026, 30.473667800000101 ], [ 114.353666652007064, 30.473670294207068 ], [ 114.353669500000137, 30.473576900000069 ] ] ] ] } },
{ "type": "Feature", "properties": { "Id": 0, "osm_id": null, "code": 0, "fclass": null, "name": null, "calming": null }, "geometry": { "type": "MultiPolygon", "coordinates": [ [ [ [ 114.353558600000042, 30.4737634 ], [ 114.353899299999966, 30.473760699999957 ], [ 114.353895073564104, 30.473670037753209 ], [ 114.352838565357501, 30.473671223918302 ], [ 114.352842499999952, 30.473778100000175 ], [ 114.352984699999979, 30.473779600000114 ], [ 114.352988699999969, 30.473883600000022 ], [ 114.353564000000119, 30.473873200000071 ], [ 114.353558600000042, 30.4737634 ] ] ] ] } },
{ "type": "Feature", "properties": { "Id": 0, "osm_id": null, "code": 0, "fclass": null, "name": null, "calming": null }, "geometry": { "type": "MultiPolygon", "coordinates": [ [ [ [ 114.355534400000124, 30.47277420000006 ], [ 114.35554250000007, 30.4738036 ], [ 114.355765128708413, 30.473801624492012 ], [ 114.355759719329512, 30.472773631397502 ], [ 114.355534400000124, 30.47277420000006 ] ] ] ] } },
{ "type": "Feature", "properties": { "Id": 0, "osm_id": null, "code": 0, "fclass": null, "name": null, "calming": null }, "geometry": { "type": "MultiPolygon", "coordinates": [ [ [ [ 114.355915900000014, 30.473028499999941 ], [ 114.3557623827528, 30.473024519046419 ], [ 114.3557654, 30.473878400000103 ], [ 114.356543124674886, 30.473878204582206 ], [ 114.356542400000194, 30.473692299999982 ], [ 114.355915900000014, 30.473690600000054 ], [ 114.355915900000014, 30.473028499999941 ] ] ] ] } },
{ "type": "Feature", "properties": { "Id": 0, "osm_id": null, "code": 0, "fclass": null, "name": null, "calming": null }, "geometry": { "type": "MultiPolygon", "coordinates": [ [ [ [ 114.358084600000097, 30.474226000000101 ], [ 114.358510900000169, 30.47421989999998 ], [ 114.358525800000166, 30.474002700000085 ], [ 114.358080400000063, 30.474009100000103 ], [ 114.358084600000097, 30.474226000000101 ] ] ] ] } },
{ "type": "Feature", "properties": { "Id": 0, "osm_id": null, "code": 0, "fclass": null, "name": null, "calming": null }, "geometry": { "type": "MultiPolygon", "coordinates": [ [ [ [ 114.358732000000145, 30.474964 ], [ 114.359319700000128, 30.474962400000095 ], [ 114.359319, 30.474764400000083 ], [ 114.358746400000086, 30.474765900000023 ], [ 114.358732000000145, 30.474964 ] ] ] ] } },
{ "type": "Feature", "properties": { "Id": 0, "osm_id": null, "code": 0, "fclass": null, "name": null, "calming": null }, "geometry": { "type": "MultiPolygon", "coordinates": [ [ [ [ 114.358630247843621, 30.475158424235701 ], [ 114.358732700000019, 30.475164100000086 ], [ 114.358732000000145, 30.474964 ], [ 114.358629380328466, 30.474975686555581 ], [ 114.358630247843621, 30.475158424235701 ] ] ] ] } },
{ "type": "Feature", "properties": { "Id": 0, "osm_id": null, "code": 0, "fclass": null, "name": null, "calming": null }, "geometry": { "type": "MultiPolygon", "coordinates": [ [ [ [ 114.356724900000017, 30.475028700000109 ], [ 114.356722778471976, 30.474879459035435 ], [ 114.355949921657498, 30.474894276597524 ], [ 114.355950167781202, 30.475638084381615 ], [ 114.356258199999957, 30.475643599999955 ], [ 114.356234, 30.4756043000001 ], [ 114.356242100000031, 30.475551100000132 ], [ 114.356293000000164, 30.475521000000128 ], [ 114.356285, 30.475211299999899 ], [ 114.35616430000016, 30.4751073 ], [ 114.356258199999957, 30.475028700000109 ], [ 114.356333300000074, 30.4750911000001 ], [ 114.356502300000102, 30.475088800000094 ], [ 114.356502300000102, 30.475035600000126 ], [ 114.356724900000017, 30.475028700000109 ] ] ] ] } },
{ "type": "Feature", "properties": { "Id": 0, "osm_id": null, "code": 0, "fclass": null, "name": null, "calming": null }, "geometry": { "type": "MultiPolygon", "coordinates": [ [ [ [ 114.355890979471496, 30.47602661673227 ], [ 114.35661210000012, 30.476032500000031 ], [ 114.356600236528152, 30.475847794211575 ], [ 114.355891157148335, 30.475843035289586 ], [ 114.355890979471496, 30.47602661673227 ] ] ] ] } },
{ "type": "Feature", "properties": { "Id": 0, "osm_id": null, "code": 0, "fclass": null, "name": null, "calming": null }, "geometry": { "type": "MultiPolygon", "coordinates": [ [ [ [ 114.354725578174566, 30.474029489426243 ], [ 114.3554165736507, 30.474029489426243 ], [ 114.355605621827635, 30.474034644925212 ], [ 114.355600862905703, 30.474600956644508 ], [ 114.355753025107674, 30.474600873019313 ], [ 114.3557654, 30.473878400000103 ], [ 114.35472536381144, 30.473885182720835 ], [ 114.354725578174566, 30.474029489426243 ] ] ] ] } },
{ "type": "Feature", "properties": { "Id": 0, "osm_id": null, "code": 0, "fclass": null, "name": null, "calming": null }, "geometry": { "type": "MultiPolygon", "coordinates": [ [ [ [ 114.35773329999995, 30.473770300000069 ], [ 114.35763424948243, 30.47377057371051 ], [ 114.357616295752905, 30.474247180923612 ], [ 114.357727600000203, 30.474245699999983 ], [ 114.357906300000082, 30.474243100000081 ], [ 114.35789770000008, 30.473984900000062 ], [ 114.3577335, 30.473989500000073 ], [ 114.35773329999995, 30.473770300000069 ] ] ] ] } },
{ "type": "Feature", "properties": { "Id": 0, "osm_id": null, "code": 0, "fclass": null, "name": null, "calming": null }, "geometry": { "type": "MultiPolygon", "coordinates": [ [ [ [ 114.353419431271391, 30.476041554529559 ], [ 114.353381079596375, 30.476048811077305 ], [ 114.353376500000081, 30.476396700000123 ], [ 114.353379000000132, 30.476496199999985 ], [ 114.3533794, 30.476981900000055 ], [ 114.353380300000026, 30.477102 ], [ 114.353397100000166, 30.477688900000089 ], [ 114.353399100000161, 30.477873500000101 ], [ 114.353406900000095, 30.47803290000013 ], [ 114.353407431299502, 30.478080763152889 ], [ 114.353452, 30.478086299999916 ], [ 114.353437096679045, 30.477150632584596 ], [ 114.353427094198764, 30.476522652098652 ], [ 114.353421520678808, 30.476172732705436 ], [ 114.353419431271391, 30.476041554529559 ] ] ] ] } },
{ "type": "Feature", "properties": { "Id": 0, "osm_id": null, "code": 0, "fclass": null, "name": null, "calming": null }, "geometry": { "type": "MultiPolygon", "coordinates": [ [ [ [ 114.352904400000057, 30.478244200000063 ], [ 114.352894000000106, 30.47730370000005 ], [ 114.352834426327149, 30.477300375559025 ], [ 114.352843399500898, 30.478240272099185 ], [ 114.352904400000057, 30.478244200000063 ] ] ] ] } },
{ "type": "Feature", "properties": { "Id": 0, "osm_id": null, "code": 0, "fclass": null, "name": null, "calming": null }, "geometry": { "type": "MultiPolygon", "coordinates": [ [ [ [ 114.352821565375393, 30.476094049838821 ], [ 114.352825928995799, 30.476503346714139 ], [ 114.352896699999974, 30.476509700000065 ], [ 114.352871874941002, 30.476096400297479 ], [ 114.352821565375393, 30.476094049838821 ] ] ] ] } },
{ "type": "Feature", "properties": { "Id": 0, "osm_id": null, "code": 0, "fclass": null, "name": null, "calming": null }, "geometry": { "type": "MultiPolygon", "coordinates": [ [ [ [ 114.35288190000017, 30.476711800000089 ], [ 114.352828161941716, 30.476712791580951 ], [ 114.352832397113616, 30.477110040312425 ], [ 114.352884900000049, 30.477104800000063 ], [ 114.35288190000017, 30.476711800000089 ] ] ] ] } },
{ "type": "Feature", "properties": { "Id": 0, "osm_id": null, "code": 0, "fclass": null, "name": null, "calming": null }, "geometry": { "type": "MultiPolygon", "coordinates": [ [ [ [ 114.352894000000106, 30.47730370000005 ], [ 114.353327600000057, 30.477300199999888 ], [ 114.353331110915178, 30.477236162119311 ], [ 114.352893290090151, 30.47723854158022 ], [ 114.352894000000106, 30.47730370000005 ] ] ] ] } },
{ "type": "Feature", "properties": { "Id": 0, "osm_id": null, "code": 0, "fclass": null, "name": null, "calming": null }, "geometry": { "type": "MultiPolygon", "coordinates": [ [ [ [ 114.35276250000004, 30.478821800000048 ], [ 114.354432000000202, 30.478792400000088 ], [ 114.354443608590714, 30.478686938833732 ], [ 114.352755827093574, 30.478697907517983 ], [ 114.35276250000004, 30.478821800000048 ] ] ] ] } },
{ "type": "Feature", "properties": { "Id": 0, "osm_id": null, "code": 0, "fclass": null, "name": null, "calming": null }, "geometry": { "type": "MultiPolygon", "coordinates": [ [ [ [ 114.354799100000037, 30.478803300000095 ], [ 114.355451900000048, 30.478807700000118 ], [ 114.355465866860072, 30.478686470095454 ], [ 114.354794861220057, 30.478685210700519 ], [ 114.354799100000037, 30.478803300000095 ] ] ] ] } },
{ "type": "Feature", "properties": { "Id": 0, "osm_id": null, "code": 0, "fclass": null, "name": null, "calming": null }, "geometry": { "type": "MultiPolygon", "coordinates": [ [ [ [ 114.358252704609413, 30.476127222175705 ], [ 114.358179952758292, 30.47613102145516 ], [ 114.358169800000042, 30.47673780000008 ], [ 114.358162600000128, 30.477973300000031 ], [ 114.358164724207768, 30.478518096736252 ], [ 114.358255550786566, 30.478518327998358 ], [ 114.358252704609413, 30.476127222175705 ] ] ] ] } },
{ "type": "Feature", "properties": { "Id": 0, "osm_id": null, "code": 0, "fclass": null, "name": null, "calming": null }, "geometry": { "type": "MultiPolygon", "coordinates": [ [ [ [ 114.3575432, 30.473998100000074 ], [ 114.357347399999981, 30.474002200000086 ], [ 114.357057199999986, 30.474148600000092 ], [ 114.35687310000003, 30.474147600000038 ], [ 114.356872125553537, 30.474329650375296 ], [ 114.356964700000162, 30.474327599999981 ], [ 114.3573364, 30.474170200000117 ], [ 114.357536747251288, 30.474150990568887 ], [ 114.3575432, 30.473998100000074 ] ] ] ] } },
{ "type": "Feature", "properties": { "Id": 0, "osm_id": null, "code": 0, "fclass": null, "name": null, "calming": null }, "geometry": { "type": "MultiPolygon", "coordinates": [ [ [ [ 114.357536747251288, 30.474150990568887 ], [ 114.3573364, 30.474170200000117 ], [ 114.356964700000162, 30.474327599999981 ], [ 114.356872125553537, 30.474329650375296 ], [ 114.356868266947345, 30.474380626487005 ], [ 114.356955831112259, 30.474380626487005 ], [ 114.357332737735533, 30.474243569532973 ], [ 114.357538323166523, 30.47422834098262 ], [ 114.357536747251288, 30.474150990568887 ] ] ] ] } },
{ "type": "Feature", "properties": { "Id": 0, "osm_id": null, "code": 0, "fclass": null, "name": null, "calming": null }, "geometry": { "type": "MultiPolygon", "coordinates": [ [ [ [ 114.355912687069122, 30.473878492208144 ], [ 114.355916482544899, 30.473965648487479 ], [ 114.356518010287232, 30.473965648487479 ], [ 114.356543124674886, 30.473878204582206 ], [ 114.355912687069122, 30.473878492208144 ] ] ] ] } },
{ "type": "Feature", "properties": { "Id": 0, "osm_id": null, "code": 0, "fclass": null, "name": null, "calming": null }, "geometry": { "type": "MultiPolygon", "coordinates": [ [ [ [ 114.35462866416924, 30.47492472205721 ], [ 114.35540515223795, 30.474931781039743 ], [ 114.355405090636509, 30.474791795385386 ], [ 114.354624630483158, 30.474782137721036 ], [ 114.35462866416924, 30.47492472205721 ] ] ] ] } },
{ "type": "Feature", "properties": { "Id": 0, "osm_id": null, "code": 0, "fclass": null, "name": null, "calming": null }, "geometry": { "type": "MultiPolygon", "coordinates": [ [ [ [ 114.355399441531517, 30.47555995874518 ], [ 114.354622953462808, 30.475552899762818 ], [ 114.354622912363652, 30.475719501605681 ], [ 114.355399568436042, 30.475713790899306 ], [ 114.355399441531517, 30.47555995874518 ] ] ] ] } },
{ "type": "Feature", "properties": { "Id": 0, "osm_id": null, "code": 0, "fclass": null, "name": null, "calming": null }, "geometry": { "type": "MultiPolygon", "coordinates": [ [ [ [ 114.3538072, 30.47572 ], [ 114.353028700000095, 30.475729700000159 ], [ 114.353035335980735, 30.475856558559542 ], [ 114.353806281346579, 30.475856558559542 ], [ 114.3538072, 30.47572 ] ] ] ] } },
{ "type": "Feature", "properties": { "Id": 0, "osm_id": null, "code": 0, "fclass": null, "name": null, "calming": null }, "geometry": { "type": "MultiPolygon", "coordinates": [ [ [ [ 114.352849500000161, 30.474696099999903 ], [ 114.352850369115231, 30.474716336614449 ], [ 114.353387149643368, 30.474723886871402 ], [ 114.353387110034873, 30.47469632730008 ], [ 114.352849500000161, 30.474696099999903 ] ] ] ] } },
{ "type": "Feature", "properties": { "Id": 0, "osm_id": null, "code": 0, "fclass": null, "name": null, "calming": null }, "geometry": { "type": "MultiPolygon", "coordinates": [ [ [ [ 114.344348666240194, 30.476049285383397 ], [ 114.344380800000067, 30.476165200000139 ], [ 114.344748, 30.477434900000048 ], [ 114.344776588507443, 30.477430514907951 ], [ 114.344371509065809, 30.476046239673224 ], [ 114.344348666240194, 30.476049285383397 ] ] ] ] } },
{ "type": "Feature", "properties": { "Id": 0, "osm_id": null, "code": 0, "fclass": null, "name": null, "calming": null }, "geometry": { "type": "MultiPolygon", "coordinates": [ [ [ [ 114.3447215, 30.476706 ], [ 114.344546637395752, 30.476046239673224 ], [ 114.344511611729899, 30.476043193963221 ], [ 114.344872528375276, 30.477415286357598 ], [ 114.344907810298423, 30.47741338057665 ], [ 114.344785799999954, 30.47690950000009 ], [ 114.344761699999935, 30.47687250000007 ], [ 114.3447215, 30.476706 ] ] ] ] } },
{ "type": "Feature", "properties": { "Id": 0, "osm_id": null, "code": 0, "fclass": null, "name": null, "calming": null }, "geometry": { "type": "MultiPolygon", "coordinates": [ [ [ [ 114.344622584645322, 30.477902547461042 ], [ 114.344622200000117, 30.477948599999934 ], [ 114.34479250000004, 30.477946300000099 ], [ 114.344785799999954, 30.477785699999913 ], [ 114.344623500000012, 30.477785699999913 ], [ 114.34462330000008, 30.47781690000005 ], [ 114.344758373754189, 30.477821756399578 ], [ 114.344764405667092, 30.477926965652273 ], [ 114.344641054408498, 30.477925442797186 ], [ 114.344644100118671, 30.477904122826487 ], [ 114.344622584645322, 30.477902547461042 ] ] ] ] } },
{ "type": "Feature", "properties": { "Id": 0, "osm_id": null, "code": 0, "fclass": null, "name": null, "calming": null }, "geometry": { "type": "MultiPolygon", "coordinates": [ [ [ [ 114.3479896, 30.475597500000049 ], [ 114.34792954189254, 30.475597667541763 ], [ 114.347929548833918, 30.475740543972449 ], [ 114.347984276436932, 30.475738164511597 ], [ 114.34799170000008, 30.475673400000119 ], [ 114.3479896, 30.475597500000049 ] ] ] ] } },
{ "type": "Feature", "properties": { "Id": 0, "osm_id": null, "code": 0, "fclass": null, "name": null, "calming": null }, "geometry": { "type": "MultiPolygon", "coordinates": [ [ [ [ 114.33367767983998, 30.477924943208563 ], [ 114.333729084181755, 30.478178539719067 ], [ 114.33376655595373, 30.478172162128885 ], [ 114.333719300000098, 30.477911800000072 ], [ 114.33367767983998, 30.477924943208563 ] ] ] ] } },
{ "type": "Feature", "properties": { "Id": 0, "osm_id": null, "code": 0, "fclass": null, "name": null, "calming": null }, "geometry": { "type": "MultiPolygon", "coordinates": [ [ [ [ 114.358755520589739, 30.47394573872225 ], [ 114.359315147603411, 30.473949264635678 ], [ 114.359749299999976, 30.473952 ], [ 114.359735200000046, 30.4735119 ], [ 114.359624200000098, 30.473508400000071 ], [ 114.359616001891709, 30.473797856829037 ], [ 114.359421600000019, 30.4738059 ], [ 114.358752500000037, 30.473802700000078 ], [ 114.358755520589739, 30.47394573872225 ] ] ] ] } },
{ "type": "Feature", "properties": { "Id": 0, "osm_id": null, "code": 0, "fclass": null, "name": null, "calming": null }, "geometry": { "type": "MultiPolygon", "coordinates": [ [ [ [ 114.359735200000046, 30.4735119 ], [ 114.359749299999976, 30.473952 ], [ 114.359806358772289, 30.473950142333422 ], [ 114.359802551634516, 30.473504707233076 ], [ 114.359735200000046, 30.4735119 ] ] ] ] } },
{ "type": "Feature", "properties": { "Id": 0, "osm_id": null, "code": 0, "fclass": null, "name": null, "calming": null }, "geometry": { "type": "MultiPolygon", "coordinates": [ [ [ [ 114.359802551634516, 30.473504707233076 ], [ 114.359718794607261, 30.473238207600389 ], [ 114.359459909249836, 30.472530080005072 ], [ 114.35932665943335, 30.472244544684372 ], [ 114.358858990625663, 30.471405071727247 ], [ 114.358800200000132, 30.471398799999974 ], [ 114.359162900000115, 30.472096700000122 ], [ 114.359405100000117, 30.472552399999984 ], [ 114.359602217855809, 30.473074008102685 ], [ 114.359732000000122, 30.473454600000025 ], [ 114.359735200000046, 30.4735119 ], [ 114.359802551634516, 30.473504707233076 ] ] ] ] } },
{ "type": "Feature", "properties": { "Id": 0, "osm_id": null, "code": 0, "fclass": null, "name": null, "calming": null }, "geometry": { "type": "MultiPolygon", "coordinates": [ [ [ [ 114.359603936024314, 30.473951084138662 ], [ 114.358755520589739, 30.47394573872225 ], [ 114.358758285514568, 30.47399400373132 ], [ 114.359602994171723, 30.473991624270241 ], [ 114.359603936024314, 30.473951084138662 ] ] ] ] } },
{ "type": "Feature", "properties": { "Id": 0, "osm_id": null, "code": 0, "fclass": null, "name": null, "calming": null }, "geometry": { "type": "MultiPolygon", "coordinates": [ [ [ [ 114.358756300000096, 30.475667099999953 ], [ 114.359344, 30.4756655 ], [ 114.359343200000126, 30.4754438 ], [ 114.358770599999957, 30.475445299999933 ], [ 114.358756300000096, 30.475667099999953 ] ] ] ] } },
{ "type": "Feature", "properties": { "Id": 0, "osm_id": null, "code": 0, "fclass": null, "name": null, "calming": null }, "geometry": { "type": "MultiPolygon", "coordinates": [ [ [ [ 114.358503602843484, 30.475475221698787 ], [ 114.358044392740339, 30.47547866846736 ], [ 114.358039688290887, 30.475531135541075 ], [ 114.358263, 30.47555170000004 ], [ 114.358512100000098, 30.475550700000099 ], [ 114.358503602843484, 30.475475221698787 ] ] ] ] } },
{ "type": "Feature", "properties": { "Id": 0, "osm_id": null, "code": 0, "fclass": null, "name": null, "calming": null }, "geometry": { "type": "MultiPolygon", "coordinates": [ [ [ [ 114.358225277452675, 30.474615788600261 ], [ 114.358077793576058, 30.474616582610963 ], [ 114.357806542883395, 30.474618042946474 ], [ 114.357811260034282, 30.474648355507838 ], [ 114.358223900000098, 30.474644400000102 ], [ 114.358225277452675, 30.474615788600261 ] ] ] ] } },
{ "type": "Feature", "properties": { "Id": 0, "osm_id": null, "code": 0, "fclass": null, "name": null, "calming": null }, "geometry": { "type": "MultiPolygon", "coordinates": [ [ [ [ 114.358284763877919, 30.47503396641315 ], [ 114.357663734340576, 30.475036431531748 ], [ 114.357661353990807, 30.475076658488831 ], [ 114.358284772774368, 30.475079037949911 ], [ 114.358284763877919, 30.47503396641315 ] ] ] ] } },
{ "type": "Feature", "properties": { "Id": 0, "osm_id": null, "code": 0, "fclass": null, "name": null, "calming": null }, "geometry": { "type": "MultiPolygon", "coordinates": [ [ [ [ 114.357544399999938, 30.473815100000024 ], [ 114.3575432, 30.473998100000074 ], [ 114.357624400260079, 30.473996431930459 ], [ 114.357632370368719, 30.473813664757017 ], [ 114.357544399999938, 30.473815100000024 ] ] ] ] } },
{ "type": "Feature", "properties": { "Id": 0, "osm_id": null, "code": 0, "fclass": null, "name": null, "calming": null }, "geometry": { "type": "MultiPolygon", "coordinates": [ [ [ [ 114.352002941211595, 30.476014702469627 ], [ 114.351584096153601, 30.476010292132287 ], [ 114.3515784, 30.4760923 ], [ 114.352008500000011, 30.476093400000082 ], [ 114.352002941211595, 30.476014702469627 ] ] ] ] } },
{ "type": "Feature", "properties": { "Id": 0, "osm_id": null, "code": 0, "fclass": null, "name": null, "calming": null }, "geometry": { "type": "MultiPolygon", "coordinates": [ [ [ [ 114.335657694688734, 30.477815475776993 ], [ 114.335649732757474, 30.477743153875792 ], [ 114.335305186804021, 30.477765996701578 ], [ 114.33532268904753, 30.477846178040124 ], [ 114.335657694688734, 30.477815475776993 ] ] ] ] } },
{ "type": "Feature", "properties": { "Id": 0, "osm_id": null, "code": 0, "fclass": null, "name": null, "calming": null }, "geometry": { "type": "MultiPolygon", "coordinates": [ [ [ [ 114.336130345740003, 30.477772158724633 ], [ 114.336116107114776, 30.477695564655789 ], [ 114.335885775289398, 30.477712696774972 ], [ 114.33590740721263, 30.477792590372474 ], [ 114.336130345740003, 30.477772158724633 ] ] ] ] } },
{ "type": "Feature", "properties": { "Id": 0, "osm_id": null, "code": 0, "fclass": null, "name": null, "calming": null }, "geometry": { "type": "MultiPolygon", "coordinates": [ [ [ [ 114.365400635001151, 30.483351059935671 ], [ 114.365515400000049, 30.483300500000041 ], [ 114.365941300000145, 30.483233200000029 ], [ 114.366023392487136, 30.483180959326376 ], [ 114.366010982597686, 30.483165047658076 ], [ 114.365960728381197, 30.483186748342575 ], [ 114.365839661405062, 30.483210733309477 ], [ 114.3655038718681, 30.483250708254388 ], [ 114.365366814914182, 30.483326089579066 ], [ 114.365400635001151, 30.483351059935671 ] ] ] ] } },
{ "type": "Feature", "properties": { "Id": 0, "osm_id": null, "code": 0, "fclass": null, "name": null, "calming": null }, "geometry": { "type": "MultiPolygon", "coordinates": [ [ [ [ 114.358372385822122, 30.477055736669456 ], [ 114.359414676919641, 30.477049906431262 ], [ 114.359414609071109, 30.476980669873285 ], [ 114.35837002568951, 30.476983049334365 ], [ 114.358372385822122, 30.477055736669456 ] ] ] ] } },
{ "type": "Feature", "properties": { "Id": 0, "osm_id": null, "code": 0, "fclass": null, "name": null, "calming": null }, "geometry": { "type": "MultiPolygon", "coordinates": [ [ [ [ 114.358339021172242, 30.477055923300441 ], [ 114.358339092696497, 30.477097263462667 ], [ 114.359436024220258, 30.477090125079599 ], [ 114.359438390928176, 30.47704977378288 ], [ 114.358339021172242, 30.477055923300441 ] ] ] ] } },
{ "type": "Feature", "properties": { "Id": 0, "osm_id": null, "code": 0, "fclass": null, "name": null, "calming": null }, "geometry": { "type": "MultiPolygon", "coordinates": [ [ [ [ 114.358284772774368, 30.475079037949911 ], [ 114.358629495591344, 30.475082572114331 ], [ 114.358629, 30.475032600000077 ], [ 114.358284763877919, 30.47503396641315 ], [ 114.358284772774368, 30.475079037949911 ] ] ] ] } },
{ "type": "Feature", "properties": { "Id": 0, "osm_id": null, "code": 0, "fclass": null, "name": null, "calming": null }, "geometry": { "type": "MultiPolygon", "coordinates": [ [ [ [ 114.358303322136862, 30.471695542801285 ], [ 114.358306200000129, 30.471451400000035 ], [ 114.357842700000106, 30.471448899999984 ], [ 114.357846478873171, 30.471699814976432 ], [ 114.358303322136862, 30.471695542801285 ] ] ] ] } },
{ "type": "Feature", "properties": { "Id": 0, "osm_id": null, "code": 0, "fclass": null, "name": null, "calming": null }, "geometry": { "type": "MultiPolygon", "coordinates": [ [ [ [ 114.357069899999942, 30.472646700000155 ], [ 114.3575644, 30.472645799999896 ], [ 114.357553700000039, 30.47240910000005 ], [ 114.357069300000035, 30.47241 ], [ 114.357069899999942, 30.472646700000155 ] ] ] ] } },
{ "type": "Feature", "properties": { "Id": 0, "osm_id": null, "code": 0, "fclass": null, "name": null, "calming": null }, "geometry": { "type": "MultiPolygon", "coordinates": [ [ [ [ 114.358005800000115, 30.471976099999949 ], [ 114.358011923726394, 30.472282619040641 ], [ 114.358380900000043, 30.472282800000073 ], [ 114.358381100000088, 30.471976300000108 ], [ 114.358005800000115, 30.471976099999949 ] ] ] ] } },
{ "type": "Feature", "properties": { "Id": 0, "osm_id": null, "code": 0, "fclass": null, "name": null, "calming": null }, "geometry": { "type": "MultiPolygon", "coordinates": [ [ [ [ 114.358512100000098, 30.472214800000131 ], [ 114.358981100000165, 30.472215 ], [ 114.358976084624373, 30.471995973602247 ], [ 114.358858599999962, 30.471998499999984 ], [ 114.358512200000064, 30.471998300000166 ], [ 114.358512100000098, 30.472214800000131 ] ] ] ] } },
{ "type": "Feature", "properties": { "Id": 0, "osm_id": null, "code": 0, "fclass": null, "name": null, "calming": null }, "geometry": { "type": "MultiPolygon", "coordinates": [ [ [ [ 114.359078600000089, 30.47310589999995 ], [ 114.359486900000093, 30.473106200000018 ], [ 114.359453880394426, 30.472854483133119 ], [ 114.359336, 30.472857200000021 ], [ 114.359073500000022, 30.472861300000147 ], [ 114.359078600000089, 30.47310589999995 ] ] ] ] } },
{ "type": "Feature", "properties": { "Id": 0, "osm_id": null, "code": 0, "fclass": null, "name": null, "calming": null }, "geometry": { "type": "MultiPolygon", "coordinates": [ [ [ [ 114.359732000000122, 30.473454600000025 ], [ 114.359405100000117, 30.472552399999984 ], [ 114.35896020000007, 30.4716894 ], [ 114.358932668657872, 30.471689657459649 ], [ 114.359377731046607, 30.472552457018764 ], [ 114.359706060406552, 30.473454429204423 ], [ 114.359732000000122, 30.473454600000025 ] ] ] ] } },
{ "type": "Feature", "properties": { "Id": 0, "osm_id": null, "code": 0, "fclass": null, "name": null, "calming": null }, "geometry": { "type": "MultiPolygon", "coordinates": [ [ [ [ 114.357582600000114, 30.473560899999939 ], [ 114.356758300000138, 30.4735624999999 ], [ 114.356757704507686, 30.473620926451702 ], [ 114.357585756937738, 30.473611408607724 ], [ 114.357582600000114, 30.473560899999939 ] ] ] ] } },
{ "type": "Feature", "properties": { "Id": 0, "osm_id": null, "code": 0, "fclass": null, "name": null, "calming": null }, "geometry": { "type": "MultiPolygon", "coordinates": [ [ [ [ 114.356772133520053, 30.473278703652625 ], [ 114.357157448282919, 30.473275268221983 ], [ 114.357559587655487, 30.473271682784969 ], [ 114.357559582866656, 30.473211659158721 ], [ 114.356769601812744, 30.47321641808071 ], [ 114.356772133520053, 30.473278703652625 ] ] ] ] } },
{ "type": "Feature", "properties": { "Id": 0, "osm_id": null, "code": 0, "fclass": null, "name": null, "calming": null }, "geometry": { "type": "MultiPolygon", "coordinates": [ [ [ [ 114.356533099999979, 30.47220620000013 ], [ 114.356203416510198, 30.4721991963346 ], [ 114.355888200000095, 30.472192500000062 ], [ 114.355882062857518, 30.472252736373321 ], [ 114.356531655712274, 30.472262254217412 ], [ 114.356533099999979, 30.47220620000013 ] ] ] ] } },
{ "type": "Feature", "properties": { "Id": 0, "osm_id": null, "code": 0, "fclass": null, "name": null, "calming": null }, "geometry": { "type": "MultiPolygon", "coordinates": [ [ [ [ 114.3561972, 30.472046 ], [ 114.356537499999945, 30.472053300000084 ], [ 114.356552399999941, 30.4718327 ], [ 114.3562035, 30.471825300000091 ], [ 114.3561972, 30.472046 ] ] ] ] } },
{ "type": "Feature", "properties": { "Id": 0, "osm_id": null, "code": 0, "fclass": null, "name": null, "calming": null }, "geometry": { "type": "MultiPolygon", "coordinates": [ [ [ [ 114.357072499999958, 30.471879 ], [ 114.357567, 30.471878099999969 ], [ 114.357556300000056, 30.471641400000124 ], [ 114.357071899999937, 30.471642300000042 ], [ 114.357072499999958, 30.471879 ] ] ] ] } },
{ "type": "Feature", "properties": { "Id": 0, "osm_id": null, "code": 0, "fclass": null, "name": null, "calming": null }, "geometry": { "type": "MultiPolygon", "coordinates": [ [ [ [ 114.356741399999919, 30.470887800000128 ], [ 114.3566929831685, 30.470716080455759 ], [ 114.356884291833239, 30.470667539451313 ], [ 114.356877600000075, 30.470621200000096 ], [ 114.356554300000084, 30.47068930000006 ], [ 114.356611600000065, 30.470915200000093 ], [ 114.356741399999919, 30.470887800000128 ] ] ] ] } },
{ "type": "Feature", "properties": { "Id": 0, "osm_id": null, "code": 0, "fclass": null, "name": null, "calming": null }, "geometry": { "type": "MultiPolygon", "coordinates": [ [ [ [ 114.357173348228912, 30.470864537509499 ], [ 114.357189814626395, 30.470930231946284 ], [ 114.357358280465633, 30.470893112354588 ], [ 114.357363800000144, 30.470819800000015 ], [ 114.357173348228912, 30.470864537509499 ] ] ] ] } },
{ "type": "Feature", "properties": { "Id": 0, "osm_id": null, "code": 0, "fclass": null, "name": null, "calming": null }, "geometry": { "type": "MultiPolygon", "coordinates": [ [ [ [ 114.351710582178953, 30.473681555118219 ], [ 114.351767689243275, 30.473682697259335 ], [ 114.351768831384447, 30.473627874477813 ], [ 114.352182286528887, 30.473623305912781 ], [ 114.352188055267902, 30.47358876295317 ], [ 114.351706018469031, 30.473593018108147 ], [ 114.351710582178953, 30.473681555118219 ] ] ] ] } },
{ "type": "Feature", "properties": { "Id": 0, "osm_id": null, "code": 0, "fclass": null, "name": null, "calming": null }, "geometry": { "type": "MultiPolygon", "coordinates": [ [ [ [ 114.354842400000052, 30.476242200000115 ], [ 114.354841020114122, 30.476282363104588 ], [ 114.355533919158916, 30.476288454524763 ], [ 114.35553300000015, 30.476246100000083 ], [ 114.355217139371462, 30.476244316251837 ], [ 114.354842400000052, 30.476242200000115 ] ] ] ] } },
{ "type": "Feature", "properties": { "Id": 0, "osm_id": null, "code": 0, "fclass": null, "name": null, "calming": null }, "geometry": { "type": "MultiPolygon", "coordinates": [ [ [ [ 114.3548442, 30.476525899999956 ], [ 114.354842542969209, 30.476576274128149 ], [ 114.355533919158916, 30.476574751273063 ], [ 114.355536400000119, 30.476529600000106 ], [ 114.3548442, 30.476525899999956 ] ] ] ] } },
{ "type": "Feature", "properties": { "Id": 0, "osm_id": null, "code": 0, "fclass": null, "name": null, "calming": null }, "geometry": { "type": "MultiPolygon", "coordinates": [ [ [ [ 114.354855900000075, 30.47681549999993 ], [ 114.354857771519505, 30.476870185151483 ], [ 114.355533919158916, 30.476867139441481 ], [ 114.355531900000074, 30.476816800000051 ], [ 114.354855900000075, 30.47681549999993 ] ] ] ] } },
{ "type": "Feature", "properties": { "Id": 0, "osm_id": null, "code": 0, "fclass": null, "name": null, "calming": null }, "geometry": { "type": "MultiPolygon", "coordinates": [ [ [ [ 114.35491879999995, 30.478483100000062 ], [ 114.354922511894756, 30.478535446177602 ], [ 114.355591045258848, 30.478524786192168 ], [ 114.355594700000097, 30.478476500000056 ], [ 114.35491879999995, 30.478483100000062 ] ] ] ] } },
{ "type": "Feature", "properties": { "Id": 0, "osm_id": null, "code": 0, "fclass": null, "name": null, "calming": null }, "geometry": { "type": "MultiPolygon", "coordinates": [ [ [ [ 114.354912300000137, 30.478212700000086 ], [ 114.354910329054405, 30.478256763704621 ], [ 114.355581908128556, 30.478246103719187 ], [ 114.355588200000057, 30.478206100000079 ], [ 114.354912300000137, 30.478212700000086 ] ] ] ] } },
{ "type": "Feature", "properties": { "Id": 0, "osm_id": null, "code": 0, "fclass": null, "name": null, "calming": null }, "geometry": { "type": "MultiPolygon", "coordinates": [ [ [ [ 114.354898, 30.477946100000054 ], [ 114.354899669069027, 30.477988741216848 ], [ 114.355577339563411, 30.477981126941586 ], [ 114.355573899999968, 30.477939500000048 ], [ 114.354898, 30.477946100000054 ] ] ] ] } },
{ "type": "Feature", "properties": { "Id": 0, "osm_id": null, "code": 0, "fclass": null, "name": null, "calming": null }, "geometry": { "type": "MultiPolygon", "coordinates": [ [ [ [ 114.355591045258848, 30.478524786192168 ], [ 114.355707162956037, 30.478525547619711 ], [ 114.355710970093583, 30.478371358546667 ], [ 114.355593301812178, 30.478371480563908 ], [ 114.355591045258848, 30.478524786192168 ] ] ] ] } },
{ "type": "Feature", "properties": { "Id": 0, "osm_id": null, "code": 0, "fclass": null, "name": null, "calming": null }, "geometry": { "type": "MultiPolygon", "coordinates": [ [ [ [ 114.351444100000094, 30.4788016 ], [ 114.352127499999938, 30.478808900000047 ], [ 114.35212793012181, 30.478729020089361 ], [ 114.351442645352108, 30.478736634364452 ], [ 114.351444100000094, 30.4788016 ] ] ] ] } },
{ "type": "Feature", "properties": { "Id": 0, "osm_id": null, "code": 0, "fclass": null, "name": null, "calming": null }, "geometry": { "type": "MultiPolygon", "coordinates": [ [ [ [ 114.348637927075288, 30.479658881724163 ], [ 114.348688181291664, 30.479658881724163 ], [ 114.348685135581718, 30.479395427801649 ], [ 114.348497824411197, 30.479392382091646 ], [ 114.348502392976343, 30.479425884902525 ], [ 114.348637927075288, 30.479436544887733 ], [ 114.348637927075288, 30.479658881724163 ] ] ] ] } },
{ "type": "Feature", "properties": { "Id": 0, "osm_id": null, "code": 0, "fclass": null, "name": null, "calming": null }, "geometry": { "type": "MultiPolygon", "coordinates": [ [ [ [ 114.350184799999965, 30.479537500000106 ], [ 114.3505907, 30.479538800000057 ], [ 114.35059165303835, 30.479506101712786 ], [ 114.350540099999989, 30.479511100000082 ], [ 114.35027950000017, 30.479512000000113 ], [ 114.350182482803348, 30.479504311937319 ], [ 114.350184799999965, 30.479537500000106 ] ] ] ] } },
{ "type": "Feature", "properties": { "Id": 0, "osm_id": null, "code": 0, "fclass": null, "name": null, "calming": null }, "geometry": { "type": "MultiPolygon", "coordinates": [ [ [ [ 114.356816200000139, 30.478869500000087 ], [ 114.357418300000177, 30.479102500000181 ], [ 114.357447643503292, 30.479035843654515 ], [ 114.356868006802301, 30.478795993985102 ], [ 114.356816200000139, 30.478869500000087 ] ] ] ] } },
{ "type": "Feature", "properties": { "Id": 0, "osm_id": null, "code": 0, "fclass": null, "name": null, "calming": null }, "geometry": { "type": "MultiPolygon", "coordinates": [ [ [ [ 114.357523500000184, 30.479145500000016 ], [ 114.357929399999989, 30.479314300000112 ], [ 114.357958751727324, 30.47924713979171 ], [ 114.357559002278435, 30.479075818599426 ], [ 114.357523500000184, 30.479145500000016 ] ] ] ] } },
{ "type": "Feature", "properties": { "Id": 0, "osm_id": null, "code": 0, "fclass": null, "name": null, "calming": null }, "geometry": { "type": "MultiPolygon", "coordinates": [ [ [ [ 114.356879459192101, 30.478757924707281 ], [ 114.357963826215155, 30.479210680279152 ], [ 114.358003961486588, 30.479158147950045 ], [ 114.356899891579815, 30.478706050359051 ], [ 114.356879459192101, 30.478757924707281 ] ] ] ] } },
{ "type": "Feature", "properties": { "Id": 0, "osm_id": null, "code": 0, "fclass": null, "name": null, "calming": null }, "geometry": { "type": "MultiPolygon", "coordinates": [ [ [ [ 114.3568017, 30.479217100000085 ], [ 114.357344599999919, 30.479423300000065 ], [ 114.357373404319901, 30.479369919979661 ], [ 114.356833266671742, 30.479162906872205 ], [ 114.3568017, 30.479217100000085 ] ] ] ] } },
{ "type": "Feature", "properties": { "Id": 0, "osm_id": null, "code": 0, "fclass": null, "name": null, "calming": null }, "geometry": { "type": "MultiPolygon", "coordinates": [ [ [ [ 114.357446900000014, 30.4794655 ], [ 114.357949, 30.479662399999938 ], [ 114.357992064181417, 30.479598348236266 ], [ 114.357480480065192, 30.47940323243381 ], [ 114.357446900000014, 30.4794655 ] ] ] ] } },
{ "type": "Feature", "properties": { "Id": 0, "osm_id": null, "code": 0, "fclass": null, "name": null, "calming": null }, "geometry": { "type": "MultiPolygon", "coordinates": [ [ [ [ 114.35480890000008, 30.4794544 ], [ 114.355469800000037, 30.479447000000107 ], [ 114.355474594437283, 30.47940323243381 ], [ 114.354808345355764, 30.479410370816822 ], [ 114.35480890000008, 30.4794544 ] ] ] ] } },
{ "type": "Feature", "properties": { "Id": 0, "osm_id": null, "code": 0, "fclass": null, "name": null, "calming": null }, "geometry": { "type": "MultiPolygon", "coordinates": [ [ [ [ 114.356141, 30.479894700000159 ], [ 114.356509399999936, 30.479897400000027 ], [ 114.356519177818882, 30.479838673797815 ], [ 114.356140843518915, 30.479833914875883 ], [ 114.356141, 30.479894700000159 ] ] ] ] } },
{ "type": "Feature", "properties": { "Id": 0, "osm_id": null, "code": 0, "fclass": null, "name": null, "calming": null }, "geometry": { "type": "MultiPolygon", "coordinates": [ [ [ [ 114.355838800000015, 30.479139700000076 ], [ 114.356426100000135, 30.479141600000048 ], [ 114.356423999378649, 30.47907248735396 ], [ 114.355838651971226, 30.479070107892881 ], [ 114.355838800000015, 30.479139700000076 ] ] ] ] } },
{ "type": "Feature", "properties": { "Id": 0, "osm_id": null, "code": 0, "fclass": null, "name": null, "calming": null }, "geometry": { "type": "MultiPolygon", "coordinates": [ [ [ [ 114.355837599999973, 30.478791099999967 ], [ 114.35644590000004, 30.478782300000148 ], [ 114.35644779398865, 30.478736983352121 ], [ 114.355838651971226, 30.478734603891041 ], [ 114.355837599999973, 30.478791099999967 ] ] ] ] } },
{ "type": "Feature", "properties": { "Id": 0, "osm_id": null, "code": 0, "fclass": null, "name": null, "calming": null }, "geometry": { "type": "MultiPolygon", "coordinates": [ [ [ [ 114.35582310000018, 30.479519 ], [ 114.356027199999971, 30.479515400000082 ], [ 114.35603059999994, 30.479656400000181 ], [ 114.356418900000108, 30.479649499999937 ], [ 114.356419240456603, 30.479622142846267 ], [ 114.356069459688911, 30.479622142846267 ], [ 114.356059941844819, 30.479472236802962 ], [ 114.356026629390726, 30.479479375185974 ], [ 114.355824375205202, 30.479479375185974 ], [ 114.35582310000018, 30.479519 ] ] ] ] } },
{ "type": "Feature", "properties": { "Id": 0, "osm_id": null, "code": 0, "fclass": null, "name": null, "calming": null }, "geometry": { "type": "MultiPolygon", "coordinates": [ [ [ [ 114.358252704609413, 30.476127222175705 ], [ 114.35825313093153, 30.476485380181543 ], [ 114.358253654330611, 30.476925093756051 ], [ 114.358318703897794, 30.476925080903243 ], [ 114.35831868004675, 30.476672923246156 ], [ 114.358318703897794, 30.476131292711784 ], [ 114.358252704609413, 30.476127222175705 ] ] ] ] } },
{ "type": "Feature", "properties": { "Id": 0, "osm_id": null, "code": 0, "fclass": null, "name": null, "calming": null }, "geometry": { "type": "MultiPolygon", "coordinates": [ [ [ [ 114.358762673143474, 30.476027073681394 ], [ 114.359462227510107, 30.476024834242537 ], [ 114.359464573002811, 30.475949977783046 ], [ 114.358762632006119, 30.475954736704978 ], [ 114.358762673143474, 30.476027073681394 ] ] ] ] } },
{ "type": "Feature", "properties": { "Id": 0, "osm_id": null, "code": 0, "fclass": null, "name": null, "calming": null }, "geometry": { "type": "MultiPolygon", "coordinates": [ [ [ [ 114.3568606, 30.474910600000101 ], [ 114.356986800000186, 30.474907500000029 ], [ 114.357277, 30.474759100000142 ], [ 114.357420720669666, 30.474753789838758 ], [ 114.357428439666705, 30.474709034934108 ], [ 114.357262829180513, 30.474728070622177 ], [ 114.357003943823088, 30.474865127576038 ], [ 114.356857369025306, 30.474867031144868 ], [ 114.3568606, 30.474910600000101 ] ] ] ] } },
{ "type": "Feature", "properties": { "Id": 0, "osm_id": null, "code": 0, "fclass": null, "name": null, "calming": null }, "geometry": { "type": "MultiPolygon", "coordinates": [ [ [ [ 114.356873000000178, 30.4746131 ], [ 114.356872597575602, 30.474657638576389 ], [ 114.357053436611977, 30.474655735007502 ], [ 114.357358007620746, 30.474497738796742 ], [ 114.357544557363667, 30.474484413815048 ], [ 114.357543100000044, 30.474463600000036 ], [ 114.357347200000163, 30.474467700000048 ], [ 114.357057, 30.474614100000053 ], [ 114.356873000000178, 30.4746131 ] ] ] ] } },
{ "type": "Feature", "properties": { "Id": 0, "osm_id": null, "code": 0, "fclass": null, "name": null, "calming": null }, "geometry": { "type": "MultiPolygon", "coordinates": [ [ [ [ 114.351968500000112, 30.475728500000059 ], [ 114.352023763663965, 30.475724925188501 ], [ 114.352023763663965, 30.475325175739499 ], [ 114.351961600000095, 30.475321800000017 ], [ 114.351968500000112, 30.475728500000059 ] ] ] ] } },
{ "type": "Feature", "properties": { "Id": 0, "osm_id": null, "code": 0, "fclass": null, "name": null, "calming": null }, "geometry": { "type": "MultiPolygon", "coordinates": [ [ [ [ 114.351362100000188, 30.47573100000011 ], [ 114.351361321719992, 30.475822007197621 ], [ 114.351972367306189, 30.475822007197621 ], [ 114.351968500000112, 30.475728500000059 ], [ 114.351729681080656, 30.475729484576789 ], [ 114.351362100000188, 30.47573100000011 ] ] ] ] } },
{ "type": "Feature", "properties": { "Id": 0, "osm_id": null, "code": 0, "fclass": null, "name": null, "calming": null }, "geometry": { "type": "MultiPolygon", "coordinates": [ [ [ [ 114.351983899999937, 30.474985 ], [ 114.352023763663965, 30.474988244061024 ], [ 114.352017101173146, 30.47467796234605 ], [ 114.351982099999987, 30.474672 ], [ 114.35198315228979, 30.47485498148427 ], [ 114.351983899999937, 30.474985 ] ] ] ] } },
{ "type": "Feature", "properties": { "Id": 0, "osm_id": null, "code": 0, "fclass": null, "name": null, "calming": null }, "geometry": { "type": "MultiPolygon", "coordinates": [ [ [ [ 114.351094100000068, 30.475622099999953 ], [ 114.351153118881939, 30.475613447440423 ], [ 114.351145504606848, 30.475445933385686 ], [ 114.351004640515271, 30.474813948542419 ], [ 114.35096, 30.47485 ], [ 114.351094100000068, 30.475455700000055 ], [ 114.351094100000068, 30.475622099999953 ] ] ] ] } },
{ "type": "Feature", "properties": { "Id": 0, "osm_id": null, "code": 0, "fclass": null, "name": null, "calming": null }, "geometry": { "type": "MultiPolygon", "coordinates": [ [ [ [ 114.351004500000045, 30.4747337 ], [ 114.351082096783671, 30.474734444676869 ], [ 114.35104433683955, 30.474548605211794 ], [ 114.3510073, 30.474519900000075 ], [ 114.351005989034093, 30.474620001623407 ], [ 114.351004500000045, 30.4747337 ] ] ] ] } },
{ "type": "Feature", "properties": { "Id": 0, "osm_id": null, "code": 0, "fclass": null, "name": null, "calming": null }, "geometry": { "type": "MultiPolygon", "coordinates": [ [ [ [ 114.35033240000007, 30.475631400000054 ], [ 114.350349812846389, 30.475712433018202 ], [ 114.351168347432463, 30.475716240155919 ], [ 114.351153118881939, 30.475613447440423 ], [ 114.351094100000068, 30.475622099999953 ], [ 114.350860016858405, 30.475624958045501 ], [ 114.35033240000007, 30.475631400000054 ] ] ] ] } },
{ "type": "Feature", "properties": { "Id": 0, "osm_id": null, "code": 0, "fclass": null, "name": null, "calming": null }, "geometry": { "type": "MultiPolygon", "coordinates": [ [ [ [ 114.350121800000124, 30.475834500000133 ], [ 114.349866122254298, 30.475836820826714 ], [ 114.349873920645337, 30.475906597036385 ], [ 114.350121384589784, 30.475898982761123 ], [ 114.350121800000124, 30.475834500000133 ] ] ] ] } },
{ "type": "Feature", "properties": { "Id": 0, "osm_id": null, "code": 0, "fclass": null, "name": null, "calming": null }, "geometry": { "type": "MultiPolygon", "coordinates": [ [ [ [ 114.350024500000018, 30.474399 ], [ 114.350117577452238, 30.474395163405518 ], [ 114.350129474757296, 30.474139133401195 ], [ 114.350110439069226, 30.473598995752809 ], [ 114.350002100000097, 30.473623600000167 ], [ 114.350005600000031, 30.473917799999981 ], [ 114.35008849999997, 30.473916800000097 ], [ 114.3501, 30.474140499999976 ], [ 114.350016900000128, 30.474137 ], [ 114.350024500000018, 30.474399 ] ] ] ] } },
{ "type": "Feature", "properties": { "Id": 0, "osm_id": null, "code": 0, "fclass": null, "name": null, "calming": null }, "geometry": { "type": "MultiPolygon", "coordinates": [ [ [ [ 114.34925286923044, 30.473524348531782 ], [ 114.349250501861775, 30.473416253147604 ], [ 114.348673187788336, 30.47341637947784 ], [ 114.348675899999989, 30.473564800000133 ], [ 114.349018, 30.4735723 ], [ 114.34925286923044, 30.473524348531782 ] ] ] ] } },
{ "type": "Feature", "properties": { "Id": 0, "osm_id": null, "code": 0, "fclass": null, "name": null, "calming": null }, "geometry": { "type": "MultiPolygon", "coordinates": [ [ [ [ 114.346389100000124, 30.473514600000044 ], [ 114.346382765308817, 30.473666050834652 ], [ 114.347194647552669, 30.473690367055553 ], [ 114.347212721756478, 30.47353294329298 ], [ 114.346504400000072, 30.473517500000128 ], [ 114.346389100000124, 30.473514600000044 ] ] ] ] } },
{ "type": "Feature", "properties": { "Id": 0, "osm_id": null, "code": 0, "fclass": null, "name": null, "calming": null }, "geometry": { "type": "MultiPolygon", "coordinates": [ [ [ [ 114.347387499999968, 30.475186000000122 ], [ 114.348388036311917, 30.47519393155244 ], [ 114.34838818519313, 30.475055225888411 ], [ 114.347378459090805, 30.475038490574832 ], [ 114.347387499999968, 30.475186000000122 ] ] ] ] } },
{ "type": "Feature", "properties": { "Id": 0, "osm_id": null, "code": 0, "fclass": null, "name": null, "calming": null }, "geometry": { "type": "MultiPolygon", "coordinates": [ [ [ [ 114.355233, 30.471565 ], [ 114.355239113458197, 30.471541261669586 ], [ 114.355097551391282, 30.470994175995259 ], [ 114.35508346039785, 30.471003792348824 ], [ 114.355143200000043, 30.471247100000028 ], [ 114.3551774, 30.471372500000086 ], [ 114.355211600000075, 30.471502499999986 ], [ 114.355233, 30.471565 ] ] ] ] } },
{ "type": "Feature", "properties": { "Id": 0, "osm_id": null, "code": 0, "fclass": null, "name": null, "calming": null }, "geometry": { "type": "MultiPolygon", "coordinates": [ [ [ [ 114.342205197575822, 30.46956531126807 ], [ 114.342205187495665, 30.469642166251617 ], [ 114.34324168070998, 30.469596480600444 ], [ 114.343233586685983, 30.469522037910565 ], [ 114.342205197575822, 30.46956531126807 ] ] ] ] } },
{ "type": "Feature", "properties": { "Id": 0, "osm_id": null, "code": 0, "fclass": null, "name": null, "calming": null }, "geometry": { "type": "MultiPolygon", "coordinates": [ [ [ [ 114.351226851696993, 30.476819152300095 ], [ 114.351799600000163, 30.4768064000001 ], [ 114.351794475628822, 30.476752617569673 ], [ 114.351223404987422, 30.476764038982481 ], [ 114.351226851696993, 30.476819152300095 ] ] ] ] } },
{ "type": "Feature", "properties": { "Id": 0, "osm_id": null, "code": 0, "fclass": null, "name": null, "calming": null }, "geometry": { "type": "MultiPolygon", "coordinates": [ [ [ [ 114.351799600000163, 30.4768064000001 ], [ 114.351799757533513, 30.476867838028113 ], [ 114.3518, 30.476962400000048 ], [ 114.351791049204849, 30.477024875497875 ], [ 114.351922395452561, 30.477030586204251 ], [ 114.351913829392856, 30.476802157947702 ], [ 114.351799600000163, 30.4768064000001 ] ] ] ] } },
{ "type": "Feature", "properties": { "Id": 0, "osm_id": null, "code": 0, "fclass": null, "name": null, "calming": null }, "geometry": { "type": "MultiPolygon", "coordinates": [ [ [ [ 114.351584399999979, 30.476491099999919 ], [ 114.351680700000088, 30.476490800000079 ], [ 114.35168740000006, 30.476227300000119 ], [ 114.351580100000092, 30.476223900000036 ], [ 114.351584399999979, 30.476491099999919 ] ] ] ] } },
{ "type": "Feature", "properties": { "Id": 0, "osm_id": null, "code": 0, "fclass": null, "name": null, "calming": null }, "geometry": { "type": "MultiPolygon", "coordinates": [ [ [ [ 114.351900600000022, 30.476501200000087 ], [ 114.351908118686424, 30.476296760430102 ], [ 114.352007104264203, 30.476304374705308 ], [ 114.352009200000111, 30.476213500000085 ], [ 114.351830900000095, 30.476219200000173 ], [ 114.351816100000065, 30.476501200000087 ], [ 114.351900600000022, 30.476501200000087 ] ] ] ] } },
{ "type": "Feature", "properties": { "Id": 0, "osm_id": null, "code": 0, "fclass": null, "name": null, "calming": null }, "geometry": { "type": "MultiPolygon", "coordinates": [ [ [ [ 114.345642106485116, 30.475860191798176 ], [ 114.345644824085298, 30.475465416539123 ], [ 114.345384667708117, 30.475455811321353 ], [ 114.345384667708117, 30.475855560770356 ], [ 114.345642106485116, 30.475860191798176 ] ] ] ] } },
{ "type": "Feature", "properties": { "Id": 0, "osm_id": null, "code": 0, "fclass": null, "name": null, "calming": null }, "geometry": { "type": "MultiPolygon", "coordinates": [ [ [ [ 114.354485700000168, 30.472096800000145 ], [ 114.355533500000206, 30.47182250000003 ], [ 114.355488893554366, 30.471641816633451 ], [ 114.354445865518528, 30.471929872023622 ], [ 114.354485700000168, 30.472096800000145 ] ] ] ] } },
{ "type": "Feature", "properties": { "Id": 0, "osm_id": null, "code": 0, "fclass": null, "name": null, "calming": null }, "geometry": { "type": "MultiPolygon", "coordinates": [ [ [ [ 114.355516593253924, 30.472679684249442 ], [ 114.355522800000017, 30.472550700000056 ], [ 114.354869498606377, 30.472556732387943 ], [ 114.354877078197205, 30.472684138644695 ], [ 114.355516593253924, 30.472679684249442 ] ] ] ] } },
{ "type": "Feature", "properties": { "Id": 0, "osm_id": null, "code": 0, "fclass": null, "name": null, "calming": null }, "geometry": { "type": "MultiPolygon", "coordinates": [ [ [ [ 114.352962643172873, 30.472743256325941 ], [ 114.353556, 30.472542600000111 ], [ 114.353670388768364, 30.472486038300076 ], [ 114.353639700000031, 30.472409 ], [ 114.352912797319959, 30.47265481207296 ], [ 114.352962643172873, 30.472743256325941 ] ] ] ] } },
{ "type": "Feature", "properties": { "Id": 0, "osm_id": null, "code": 0, "fclass": null, "name": null, "calming": null }, "geometry": { "type": "MultiPolygon", "coordinates": [ [ [ [ 114.349399800000015, 30.4746093 ], [ 114.349400600000081, 30.474688600000036 ], [ 114.349695473147904, 30.474686469342032 ], [ 114.349709813978393, 30.474609674987732 ], [ 114.349399800000015, 30.4746093 ] ] ] ] } },
{ "type": "Feature", "properties": { "Id": 0, "osm_id": null, "code": 0, "fclass": null, "name": null, "calming": null }, "geometry": { "type": "MultiPolygon", "coordinates": [ [ [ [ 114.348996153043799, 30.474250607989688 ], [ 114.348917929355821, 30.474258466543347 ], [ 114.348925543630912, 30.474467859111883 ], [ 114.348998100000017, 30.474479600000109 ], [ 114.348996153043799, 30.474250607989688 ] ] ] ] } },
{ "type": "Feature", "properties": { "Id": 0, "osm_id": null, "code": 0, "fclass": null, "name": null, "calming": null }, "geometry": { "type": "MultiPolygon", "coordinates": [ [ [ [ 114.349000450362951, 30.474749565455284 ], [ 114.348999058254662, 30.474585676331117 ], [ 114.348933157906117, 30.47458968751539 ], [ 114.34893696504389, 30.474749587294866 ], [ 114.349000450362951, 30.474749565455284 ] ] ] ] } },
{ "type": "Feature", "properties": { "Id": 0, "osm_id": null, "code": 0, "fclass": null, "name": null, "calming": null }, "geometry": { "type": "MultiPolygon", "coordinates": [ [ [ [ 114.349004159547007, 30.475054224875123 ], [ 114.349001645130102, 30.474860044117747 ], [ 114.34893696504389, 30.474863801423169 ], [ 114.34893696504389, 30.47505035116609 ], [ 114.349004159547007, 30.475054224875123 ] ] ] ] } },
{ "type": "Feature", "properties": { "Id": 0, "osm_id": null, "code": 0, "fclass": null, "name": null, "calming": null }, "geometry": { "type": "MultiPolygon", "coordinates": [ [ [ [ 114.347420900000088, 30.474720600000012 ], [ 114.347904872442086, 30.474729987856335 ], [ 114.347905230751735, 30.474623951753813 ], [ 114.347425531412796, 30.474612530341005 ], [ 114.347420900000088, 30.474720600000012 ] ] ] ] } },
{ "type": "Feature", "properties": { "Id": 0, "osm_id": null, "code": 0, "fclass": null, "name": null, "calming": null }, "geometry": { "type": "MultiPolygon", "coordinates": [ [ [ [ 114.344509300000027, 30.477815799999917 ], [ 114.343991197219566, 30.477814335795358 ], [ 114.343946400000164, 30.477848699999981 ], [ 114.343945300000087, 30.477937500000053 ], [ 114.344520900000134, 30.47794289999996 ], [ 114.344509300000027, 30.477815799999917 ] ] ] ] } },
{ "type": "Feature", "properties": { "Id": 0, "osm_id": null, "code": 0, "fclass": null, "name": null, "calming": null }, "geometry": { "type": "MultiPolygon", "coordinates": [ [ [ [ 114.344398, 30.477670700000033 ], [ 114.344042500000114, 30.47767180000011 ], [ 114.344036940994442, 30.47772772068987 ], [ 114.344394811929646, 30.477739142102678 ], [ 114.344398, 30.477670700000033 ] ] ] ] } },
{ "type": "Feature", "properties": { "Id": 0, "osm_id": null, "code": 0, "fclass": null, "name": null, "calming": null }, "geometry": { "type": "MultiPolygon", "coordinates": [ [ [ [ 114.344362566727, 30.478478035351145 ], [ 114.344356740553735, 30.478513894606067 ], [ 114.344736502530054, 30.478522460665772 ], [ 114.344730844510423, 30.478475298423291 ], [ 114.344362566727, 30.478478035351145 ] ] ] ] } },
{ "type": "Feature", "properties": { "Id": 0, "osm_id": null, "code": 0, "fclass": null, "name": null, "calming": null }, "geometry": { "type": "MultiPolygon", "coordinates": [ [ [ [ 114.344039176375759, 30.478558717365274 ], [ 114.344034085641169, 30.478491051780452 ], [ 114.343591505894096, 30.478499617840157 ], [ 114.343597599999953, 30.478576800000042 ], [ 114.344039176375759, 30.478558717365274 ] ] ] ] } },
{ "type": "Feature", "properties": { "Id": 0, "osm_id": "106045294", "code": 5260, "fclass": "parking", "name": null, "calming": null }, "geometry": { "type": "MultiPolygon", "coordinates": [ [ [ [ 114.345048599999956, 30.478358300000018 ], [ 114.344827, 30.47835449999997 ], [ 114.344823, 30.478527399999976 ], [ 114.345044499999972, 30.478531200000024 ], [ 114.345048599999956, 30.478358300000018 ] ] ] ] } },
{ "type": "Feature", "properties": { "Id": 0, "osm_id": "106360600", "code": 5260, "fclass": "parking", "name": null, "calming": null }, "geometry": { "type": "MultiPolygon", "coordinates": [ [ [ [ 114.3510573, 30.481527599999968 ], [ 114.350769099999965, 30.481522800000015 ], [ 114.350761200000022, 30.482194299999975 ], [ 114.3510442, 30.4821968 ], [ 114.3510573, 30.481527599999968 ] ] ] ] } },
{ "type": "Feature", "properties": { "Id": 0, "osm_id": "106362007", "code": 5260, "fclass": "parking", "name": null, "calming": null }, "geometry": { "type": "MultiPolygon", "coordinates": [ [ [ [ 114.3481912, 30.482418200000026 ], [ 114.347989099999978, 30.482410600000019 ], [ 114.347985, 30.482491400000043 ], [ 114.348187100000018, 30.482499 ], [ 114.3481912, 30.482418200000026 ] ] ] ] } },
{ "type": "Feature", "properties": { "Id": 0, "osm_id": "106362012", "code": 5260, "fclass": "parking", "name": null, "calming": null }, "geometry": { "type": "MultiPolygon", "coordinates": [ [ [ [ 114.34986109999997, 30.481341 ], [ 114.349803099999974, 30.48134050000003 ], [ 114.349797, 30.481869500000013 ], [ 114.349855, 30.48187 ], [ 114.34986109999997, 30.481341 ] ] ] ] } },
{ "type": "Feature", "properties": { "Id": 0, "osm_id": "114366254", "code": 5260, "fclass": "parking", "name": null, "calming": null }, "geometry": { "type": "MultiPolygon", "coordinates": [ [ [ [ 114.3478282, 30.476248900000012 ], [ 114.347824200000019, 30.476114700000011 ], [ 114.347725400000016, 30.4761168 ], [ 114.347659, 30.476117100000032 ], [ 114.347665, 30.476247900000018 ], [ 114.3478282, 30.476248900000012 ] ] ] ] } },
{ "type": "Feature", "properties": { "Id": 0, "osm_id": "114366581", "code": 5260, "fclass": "parking", "name": null, "calming": null }, "geometry": { "type": "MultiPolygon", "coordinates": [ [ [ [ 114.347778799999986, 30.4777483 ], [ 114.347755500000019, 30.477410700000039 ], [ 114.347696600000035, 30.477413700000021 ], [ 114.3477199, 30.477751299999976 ], [ 114.347778799999986, 30.4777483 ] ] ] ] } },
{ "type": "Feature", "properties": { "Id": 0, "osm_id": "114367476", "code": 5260, "fclass": "parking", "name": null, "calming": null }, "geometry": { "type": "MultiPolygon", "coordinates": [ [ [ [ 114.348406699999984, 30.477646900000043 ], [ 114.348389199999957, 30.477434 ], [ 114.3480473, 30.477445800000012 ], [ 114.3480473, 30.4776399 ], [ 114.348219, 30.477637599999984 ], [ 114.348259200000044, 30.477693099999957 ], [ 114.348350400000029, 30.477688500000021 ], [ 114.348406699999984, 30.477646900000043 ] ] ] ] } },
{ "type": "Feature", "properties": { "Id": 0, "osm_id": "126185135", "code": 5260, "fclass": "parking", "name": null, "calming": null }, "geometry": { "type": "MultiPolygon", "coordinates": [ [ [ [ 114.350540100000018, 30.479511100000011 ], [ 114.350539499999968, 30.479375900000015 ], [ 114.350278799999984, 30.4793769 ], [ 114.350279500000042, 30.479512 ], [ 114.350540100000018, 30.479511100000011 ] ] ] ] } },
{ "type": "Feature", "properties": { "Id": 0, "osm_id": "126185142", "code": 5260, "fclass": "parking", "name": null, "calming": null }, "geometry": { "type": "MultiPolygon", "coordinates": [ [ [ [ 114.350804499999967, 30.4786469 ], [ 114.350394799999989, 30.478633200000026 ], [ 114.350393299999951, 30.478666700000044 ], [ 114.350803, 30.478680400000023 ], [ 114.350804499999967, 30.4786469 ] ] ] ] } },
{ "type": "Feature", "properties": { "Id": 0, "osm_id": "126186182", "code": 5260, "fclass": "parking", "name": null, "calming": null }, "geometry": { "type": "MultiPolygon", "coordinates": [ [ [ [ 114.346012300000027, 30.47937439999998 ], [ 114.345424300000047, 30.4793596 ], [ 114.3454227, 30.479407599999973 ], [ 114.346010699999979, 30.479422400000043 ], [ 114.346012300000027, 30.47937439999998 ] ] ] ] } },
{ "type": "Feature", "properties": { "Id": 0, "osm_id": "126186307", "code": 5260, "fclass": "parking", "name": null, "calming": null }, "geometry": { "type": "MultiPolygon", "coordinates": [ [ [ [ 114.347015, 30.479385099999977 ], [ 114.3464897, 30.479371099999973 ], [ 114.346485800000039, 30.479481200000023 ], [ 114.347011099999975, 30.479495200000027 ], [ 114.347015, 30.479385099999977 ] ] ] ] } },
{ "type": "Feature", "properties": { "Id": 0, "osm_id": "126186309", "code": 5260, "fclass": "parking", "name": null, "calming": null }, "geometry": { "type": "MultiPolygon", "coordinates": [ [ [ [ 114.346414900000028, 30.479386600000012 ], [ 114.3460786, 30.479384600000024 ], [ 114.346078299999974, 30.479420599999983 ], [ 114.3464146, 30.479422599999971 ], [ 114.346414900000028, 30.479386600000012 ] ] ] ] } },
{ "type": "Feature", "properties": { "Id": 0, "osm_id": "126186977", "code": 5260, "fclass": "parking", "name": null, "calming": null }, "geometry": { "type": "MultiPolygon", "coordinates": [ [ [ [ 114.340415500000034, 30.4784224 ], [ 114.340415500000034, 30.478366900000019 ], [ 114.339586700000027, 30.478376099999981 ], [ 114.339590299999969, 30.47843240000002 ], [ 114.340415500000034, 30.4784224 ] ] ] ] } },
{ "type": "Feature", "properties": { "Id": 0, "osm_id": "126460328", "code": 5260, "fclass": "parking", "name": null, "calming": null }, "geometry": { "type": "MultiPolygon", "coordinates": [ [ [ [ 114.339861899999974, 30.480182799999987 ], [ 114.339739599999987, 30.480159600000022 ], [ 114.3397022, 30.480306 ], [ 114.3398245, 30.480329200000021 ], [ 114.339861899999974, 30.480182799999987 ] ] ] ] } },
{ "type": "Feature", "properties": { "Id": 0, "osm_id": "126467798", "code": 5260, "fclass": "parking", "name": null, "calming": null }, "geometry": { "type": "MultiPolygon", "coordinates": [ [ [ [ 114.360100599999967, 30.475484800000029 ], [ 114.360100599999967, 30.47523289999997 ], [ 114.35979, 30.4750788 ], [ 114.359795300000016, 30.475427900000028 ], [ 114.3599777, 30.4754232 ], [ 114.359795300000016, 30.475531900000018 ], [ 114.359792599999963, 30.47574220000001 ], [ 114.3598919, 30.475832400000012 ], [ 114.360082300000045, 30.475825499999974 ], [ 114.3599745, 30.475762199999977 ], [ 114.359940200000011, 30.475645199999978 ], [ 114.359991099999959, 30.475536500000043 ], [ 114.360100599999967, 30.475484800000029 ] ] ] ] } },
{ "type": "Feature", "properties": { "Id": 0, "osm_id": "924853615", "code": 5260, "fclass": "parking", "name": null, "calming": null }, "geometry": { "type": "MultiPolygon", "coordinates": [ [ [ [ 114.3444319, 30.476906399999969 ], [ 114.344237800000016, 30.476191100000026 ], [ 114.3437525, 30.476214099999975 ], [ 114.343810700000034, 30.476921 ], [ 114.3444319, 30.476906399999969 ] ] ] ] } }
]
}
