{
 "type": "FeatureCollection",
 "name": "campus_boundary",
 "crs": {
  "type": "name",
  "properties": {
   "name": "urn:ogc:def:crs:OGC:1.3:CRS84"
  }
 },
 "source": {
  "derived_from": "data/noparking.geojson (MultiPolygon 部件外环)",
  "osm_id": "10811687",
  "osm_name": "华中农业大学",
  "note": "校园矢量边界；由 scripts/extract_campus_boundary.py 离线提取，未联网"
 },
 "features": [
  {
   "type": "Feature",
   "geometry": {
    "type": "Polygon",
    "coordinates": [
     [
      [
       114.36514859999998,
       30.48339639999998
      ],
      [
       114.36520079999995,
       30.4833472
      ],
      [
       114.36525340000004,
       30.483384300000044
      ],
      [
       114.36531110000003,
       30.48342849999997
      ],
      [
       114.36540063500104,
       30.483351059935565
      ],
      [
       114.36536681491421,
       30.483326089579027
      ],
      [
       114.36550387186809,
       30.483250708254378
      ],
      [
       114.36583966140506,
       30.483210733309512
      ],
      [
       114.36596072838115,
       30.48318674834261
      ],
      [
       114.36601098259767,
       30.483165047658073
      ],
      [
       114.36602339248715,
       30.48318095932641
      ],
      [
       114.366114,
       30.48312330000003
      ],
      [
       114.36620440000004,
       30.483004399999963
      ],
      [
       114.36617689999999,
       30.482742599999973
      ],
      [
       114.36611820000002,
       30.482567200000027
      ],
      [
       114.365825,
       30.482161400000024
      ],
      [
       114.3655502,
       30.48166780000004
      ],
      [
       114.3650908,
       30.481019
      ],
      [
       114.36478210000004,
       30.480549699999987
      ],
      [
       114.36446149999998,
       30.480018900000033
      ],
      [
       114.3641579,
       30.479470500000044
      ],
      [
       114.36369729999998,
       30.4778103
      ],
      [
       114.36368959999997,
       30.47758750000003
      ],
      [
       114.3638164,
       30.4767455
      ],
      [
       114.3635655,
       30.47627189999998
      ],
      [
       114.3623995,
       30.474631300000038
      ],
      [
       114.36242189999997,
       30.474451
      ],
      [
       114.3633153,
       30.4727566
      ],
      [
       114.36341140000005,
       30.47264530000003
      ],
      [
       114.36360159999998,
       30.472479100000044
      ],
      [
       114.36367579999998,
       30.47185420000003
      ],
      [
       114.36368170000003,
       30.4715458
      ],
      [
       114.36364449999998,
       30.47129050000002
      ],
      [
       114.36341980000003,
       30.4707847
      ],
      [
       114.363155,
       30.470271099999962
      ],
      [
       114.3628173,
       30.469615499999986
      ],
      [
       114.36270780000001,
       30.469339
      ],
      [
       114.36243860000003,
       30.4688063
      ],
      [
       114.36238690000002,
       30.468443
      ],
      [
       114.36247859999996,
       30.46835819999996
      ],
      [
       114.3625884,
       30.468296800000033
      ],
      [
       114.36289040000001,
       30.468222600000022
      ],
      [
       114.36318069999997,
       30.468177400000013
      ],
      [
       114.363546,
       30.468125
      ],
      [
       114.36321419999999,
       30.467727800000027
      ],
      [
       114.36312389999998,
       30.467619699999965
      ],
      [
       114.36291559999997,
       30.46736749999997
      ],
      [
       114.36252670000003,
       30.466915499999963
      ],
      [
       114.3623246,
       30.466637599999974
      ],
      [
       114.36209229999997,
       30.466307
      ],
      [
       114.3616332,
       30.466073500000018
      ],
      [
       114.36160719999998,
       30.466022499999973
      ],
      [
       114.35584960000001,
       30.464909199999962
      ],
      [
       114.3538689,
       30.464561399999962
      ],
      [
       114.35359550000003,
       30.464903400000015
      ],
      [
       114.35359010000002,
       30.465134400000032
      ],
      [
       114.35331129999996,
       30.465300800000033
      ],
      [
       114.3529253,
       30.465397799999977
      ],
      [
       114.35263580000003,
       30.46542549999996
      ],
      [
       114.35243749999997,
       30.465388600000015
      ],
      [
       114.3519818,
       30.465379299999956
      ],
      [
       114.35166010000003,
       30.4654163
      ],
      [
       114.351392,
       30.465319299999965
      ],
      [
       114.3511883,
       30.465134400000032
      ],
      [
       114.35066290000003,
       30.4649311
      ],
      [
       114.3501429,
       30.46488029999997
      ],
      [
       114.35013920000004,
       30.464588
      ],
      [
       114.35013749999999,
       30.464450500000023
      ],
      [
       114.34993910000001,
       30.46440430000002
      ],
      [
       114.34901160000001,
       30.464390400000024
      ],
      [
       114.34840049999998,
       30.4645244
      ],
      [
       114.34754140000004,
       30.464192199999967
      ],
      [
       114.34732440000003,
       30.46458739999998
      ],
      [
       114.348333,
       30.464894900000022
      ],
      [
       114.34854759999999,
       30.46517229999997
      ],
      [
       114.34867629999998,
       30.4654313
      ],
      [
       114.3490868,
       30.46563150000004
      ],
      [
       114.34929210000003,
       30.465965400000044
      ],
      [
       114.34911080000005,
       30.4661249
      ],
      [
       114.348501,
       30.4666335
      ],
      [
       114.34843090000001,
       30.4667217
      ],
      [
       114.3483987,
       30.466809499999986
      ],
      [
       114.34839279999997,
       30.466890799999963
      ],
      [
       114.34839460000002,
       30.46741020000004
      ],
      [
       114.3479736,
       30.467628199999957
      ],
      [
       114.34823169999996,
       30.468185100000028
      ],
      [
       114.34802359999998,
       30.468270800000013
      ],
      [
       114.34689290000003,
       30.468736199999974
      ],
      [
       114.34682630000003,
       30.468757300000032
      ],
      [
       114.34675819999998,
       30.4687494
      ],
      [
       114.34671150000003,
       30.468727599999973
      ],
      [
       114.34666420000002,
       30.46866820000003
      ],
      [
       114.34659259999997,
       30.468549200000044
      ],
      [
       114.3465653,
       30.4684413
      ],
      [
       114.34652260000003,
       30.46803519999997
      ],
      [
       114.34647650000004,
       30.467969400000033
      ],
      [
       114.3464351,
       30.4678788
      ],
      [
       114.346248,
       30.46789479999999
      ],
      [
       114.34620309999998,
       30.4680247
      ],
      [
       114.346212,
       30.468221799999956
      ],
      [
       114.3461861,
       30.46833919999999
      ],
      [
       114.34612689999997,
       30.468436
      ],
      [
       114.3456399,
       30.46894439999997
      ],
      [
       114.34557060000004,
       30.46897830000002
      ],
      [
       114.344812,
       30.469067
      ],
      [
       114.34473469999999,
       30.469054
      ],
      [
       114.34455639999997,
       30.468686400000028
      ],
      [
       114.34419029999997,
       30.467887600000015
      ],
      [
       114.3439127,
       30.467521199999986
      ],
      [
       114.3428983,
       30.467301
      ],
      [
       114.34273970000002,
       30.467425200000037
      ],
      [
       114.34260379999998,
       30.468593900000013
      ],
      [
       114.342003,
       30.4685754
      ],
      [
       114.34170260000002,
       30.468002099999985
      ],
      [
       114.34138070000003,
       30.4678541
      ],
      [
       114.34108030000004,
       30.467151300000022
      ],
      [
       114.34060929999997,
       30.46729740000003
      ],
      [
       114.34168330000001,
       30.470767900000034
      ],
      [
       114.34077090000002,
       30.47097290000003
      ],
      [
       114.34068889999999,
       30.47097429999997
      ],
      [
       114.34063020000002,
       30.470951599999957
      ],
      [
       114.3405969,
       30.4709102
      ],
      [
       114.34055349999997,
       30.470843499999983
      ],
      [
       114.34049009999997,
       30.470754299999975
      ],
      [
       114.34041460000003,
       30.470676400000013
      ],
      [
       114.34031959999999,
       30.4706375
      ],
      [
       114.34026980000004,
       30.470645500000032
      ],
      [
       114.34013750000001,
       30.47072189999996
      ],
      [
       114.340083,
       30.470780199999986
      ],
      [
       114.3400535,
       30.470827399999983
      ],
      [
       114.34003460000002,
       30.4709468
      ],
      [
       114.33995420000004,
       30.4710166
      ],
      [
       114.33976449999997,
       30.47102369999997
      ],
      [
       114.3378647,
       30.471051499999962
      ],
      [
       114.33775020000002,
       30.471042
      ],
      [
       114.33766670000004,
       30.470995599999956
      ],
      [
       114.33755649999998,
       30.47096860000003
      ],
      [
       114.33731990000004,
       30.4709778
      ],
      [
       114.3367429,
       30.4712151
      ],
      [
       114.33669659999998,
       30.471314799999988
      ],
      [
       114.336684,
       30.471914799999983
      ],
      [
       114.33668120000003,
       30.471974500000037
      ],
      [
       114.33664570000003,
       30.472018
      ],
      [
       114.33659330000005,
       30.4720448
      ],
      [
       114.336078,
       30.472072
      ],
      [
       114.33591980000001,
       30.4720803
      ],
      [
       114.33524920000004,
       30.472063899999974
      ],
      [
       114.3352124,
       30.47203880000003
      ],
      [
       114.33516330000003,
       30.471928699999978
      ],
      [
       114.33508969999998,
       30.471809499999974
      ],
      [
       114.3350041,
       30.4717142
      ],
      [
       114.334895,
       30.471626099999988
      ],
      [
       114.3347357,
       30.47153740000002
      ],
      [
       114.33450449999997,
       30.47144080000002
      ],
      [
       114.33434559999996,
       30.47136670000002
      ],
      [
       114.33422429999996,
       30.4712893
      ],
      [
       114.3340904,
       30.47119390000002
      ],
      [
       114.334026,
       30.471132900000036
      ],
      [
       114.33393339999996,
       30.471009899999984
      ],
      [
       114.33381019999999,
       30.470923600000038
      ],
      [
       114.33363590000005,
       30.471337900000034
      ],
      [
       114.3339854,
       30.47353
      ],
      [
       114.3345135,
       30.47519690000003
      ],
      [
       114.335295,
       30.4749549
      ],
      [
       114.336512,
       30.475010399999963
      ],
      [
       114.33651739999998,
       30.475685
      ],
      [
       114.33644229999999,
       30.476387300000024
      ],
      [
       114.33632270000004,
       30.47679979999996
      ],
      [
       114.3362922,
       30.47690480000003
      ],
      [
       114.33612759999997,
       30.47687460000002
      ],
      [
       114.33609070000003,
       30.4770258
      ],
      [
       114.3362631,
       30.47706030000002
      ],
      [
       114.3362878,
       30.476970100000017
      ],
      [
       114.33669419999995,
       30.47703910000004
      ],
      [
       114.33662650000004,
       30.4772886
      ],
      [
       114.33494520000002,
       30.4774133
      ],
      [
       114.33479129999998,
       30.47722489999996
      ],
      [
       114.33369509999997,
       30.47730979999997
      ],
      [
       114.3334734,
       30.477331
      ],
      [
       114.33339019999997,
       30.477110800000023
      ],
      [
       114.33284719999997,
       30.477233300000034
      ],
      [
       114.33351909999998,
       30.478755699999965
      ],
      [
       114.33368139999999,
       30.479098
      ],
      [
       114.33371659999997,
       30.4791833
      ],
      [
       114.33379709999997,
       30.47941689999996
      ],
      [
       114.33429050000002,
       30.47937
      ],
      [
       114.33433279999997,
       30.480448200000026
      ],
      [
       114.33507989999997,
       30.480485900000037
      ],
      [
       114.33592880000005,
       30.480481699999956
      ],
      [
       114.3364607,
       30.4805337
      ],
      [
       114.33654910000003,
       30.480546100000044
      ],
      [
       114.33669539999997,
       30.4805766
      ],
      [
       114.33694889999998,
       30.480564599999976
      ],
      [
       114.33702130000002,
       30.480535
      ],
      [
       114.33709789999996,
       30.480621
      ],
      [
       114.33712970000002,
       30.4806658
      ],
      [
       114.33710280000001,
       30.480742200000016
      ],
      [
       114.33755849999997,
       30.4810941
      ],
      [
       114.33899870000003,
       30.481262
      ],
      [
       114.34254760000003,
       30.4813668
      ],
      [
       114.34304,
       30.481821699999983
      ],
      [
       114.34342360000004,
       30.48200829999997
      ],
      [
       114.34339040000005,
       30.482284
      ],
      [
       114.34351250000002,
       30.4824413
      ],
      [
       114.34696839999997,
       30.482672
      ],
      [
       114.347008,
       30.482674400000015
      ],
      [
       114.34767330000003,
       30.4826989
      ],
      [
       114.34778739999997,
       30.4825862
      ],
      [
       114.34791839999997,
       30.4825958
      ],
      [
       114.34818679999998,
       30.482598400000033
      ],
      [
       114.34819209999996,
       30.4826538
      ],
      [
       114.3485757,
       30.482650199999966
      ],
      [
       114.34857979999998,
       30.482714100000013
      ],
      [
       114.34970310000003,
       30.482658
      ],
      [
       114.3511186,
       30.48249349999997
      ],
      [
       114.3563057,
       30.481923699999985
      ],
      [
       114.35727750000004,
       30.481875900000027
      ],
      [
       114.35823920000003,
       30.48191650000001
      ],
      [
       114.36011,
       30.48217159999998
      ],
      [
       114.36118639999998,
       30.482441099999985
      ],
      [
       114.36453769999999,
       30.483619
      ],
      [
       114.36472610000003,
       30.483635400000036
      ],
      [
       114.3648869,
       30.483577899999986
      ],
      [
       114.36500139999998,
       30.4835352
      ],
      [
       114.36514859999998,
       30.48339639999998
      ]
     ]
    ]
   },
   "properties": {
    "name": "华中农业大学",
    "osm_id": "10811687",
    "fclass": "university",
    "vertex_count": 224
   }
  }
 ]
}