{
"type": "FeatureCollection",
"name": "tempparking",
"crs": { "type": "name", "properties": { "name": "urn:ogc:def:crs:OGC:1.3:CRS84" } },
"features": [
{ "type": "Feature", "properties": { "Id": 0 }, "geometry": { "type": "MultiPolygon", "coordinates": [ [ [ [ 114.354874459463417, 30.4758944760639 ], [ 114.355392230178268, 30.47587544037583 ], [ 114.355396037315927, 30.475818333311736 ], [ 114.354874459463417, 30.475822140449225 ], [ 114.354874459463417, 30.4758944760639 ] ] ] ] } },
{ "type": "Feature", "properties": { "Id": 0 }, "geometry": { "type": "MultiPolygon", "coordinates": [ [ [ [ 114.356717100000083, 30.4757191 ], [ 114.356504400000063, 30.475723100000152 ], [ 114.356505800000036, 30.475676 ], [ 114.356311800000071, 30.475669 ], [ 114.356304014254761, 30.475750109405737 ], [ 114.356503508265405, 30.475759246536086 ], [ 114.3567167079716, 30.475762292246031 ], [ 114.356717100000083, 30.4757191 ] ] ] ] } },
{ "type": "Feature", "properties": { "Id": 0 }, "geometry": { "type": "MultiPolygon", "coordinates": [ [ [ [ 114.357515759018156, 30.475040144254706 ], [ 114.357515136111942, 30.47497707328688 ], [ 114.357418054102823, 30.47501990358495 ], [ 114.35736951309832, 30.475045601763782 ], [ 114.357349525625864, 30.475074155295772 ], [ 114.357326642653788, 30.475111775768028 ], [ 114.35738664521773, 30.475134117713196 ], [ 114.357415198749777, 30.475105564181263 ], [ 114.357466595107326, 30.475082721355477 ], [ 114.357517991465215, 30.475074155295772 ], [ 114.357515759018156, 30.475040144254706 ] ] ] ] } },
{ "type": "Feature", "properties": { "Id": 0 }, "geometry": { "type": "MultiPolygon", "coordinates": [ [ [ [ 114.35738664521773, 30.475134117713196 ], [ 114.357354700000087, 30.475111900000059 ], [ 114.357343900000046, 30.475175900000011 ], [ 114.357347399999981, 30.475483900000086 ], [ 114.357383841402452, 30.47548362647575 ], [ 114.357378079157911, 30.475176948011267 ], [ 114.35738664521773, 30.475134117713196 ] ] ] ] } },
{ "type": "Feature", "properties": { "Id": 0 }, "geometry": { "type": "MultiPolygon", "coordinates": [ [ [ [ 114.357973, 30.472466700000041 ], [ 114.357973100000095, 30.472282600000085 ], [ 114.357924362859876, 30.472277796963681 ], [ 114.357930073566308, 30.472468153844204 ], [ 114.357973, 30.472466700000041 ] ] ] ] } },
{ "type": "Feature", "properties": { "Id": 0 }, "geometry": { "type": "MultiPolygon", "coordinates": [ [ [ [ 114.352843399500898, 30.478240272099185 ], [ 114.352837381146173, 30.4776098785469 ], [ 114.352789328275662, 30.47760836375312 ], [ 114.352790851130635, 30.47823882574113 ], [ 114.352843399500898, 30.478240272099185 ] ] ] ] } },
{ "type": "Feature", "properties": { "Id": 0 }, "geometry": { "type": "MultiPolygon", "coordinates": [ [ [ [ 114.352088369868625, 30.478228119487483 ], [ 114.352132977751694, 30.478226642900779 ], [ 114.352126886331575, 30.477603795187861 ], [ 114.352083228297147, 30.477600670468348 ], [ 114.352088369868625, 30.478228119487483 ] ] ] ] } },
{ "type": "Feature", "properties": { "Id": 0 }, "geometry": { "type": "MultiPolygon", "coordinates": [ [ [ [ 114.3555738, 30.477742599999942 ], [ 114.355573912389673, 30.477768140451644 ], [ 114.355710967648065, 30.477768622507085 ], [ 114.355712873662469, 30.477632773850303 ], [ 114.355690400000071, 30.477629700000023 ], [ 114.355692, 30.477740500000095 ], [ 114.3555738, 30.477742599999942 ] ] ] ] } },
{ "type": "Feature", "properties": { "Id": 0 }, "geometry": { "type": "MultiPolygon", "coordinates": [ [ [ [ 114.354739216031476, 30.4761179987226 ], [ 114.354738472698273, 30.477048386392596 ], [ 114.354737900000146, 30.477765200000022 ], [ 114.354761520890065, 30.477765283080203 ], [ 114.354778221379206, 30.476113250052151 ], [ 114.354739216031476, 30.4761179987226 ] ] ] ] } },
{ "type": "Feature", "properties": { "Id": 0 }, "geometry": { "type": "MultiPolygon", "coordinates": [ [ [ [ 114.355033712158729, 30.477628967759586 ], [ 114.355033788184983, 30.477045998271421 ], [ 114.354987613947742, 30.477050757688289 ], [ 114.354989993408822, 30.477628966712814 ], [ 114.355033712158729, 30.477628967759586 ] ] ] ] } },
{ "type": "Feature", "properties": { "Id": 0 }, "geometry": { "type": "MultiPolygon", "coordinates": [ [ [ [ 114.354443608590714, 30.478686938833732 ], [ 114.354442717377424, 30.478637858179184 ], [ 114.352750920602375, 30.478640237640207 ], [ 114.352755827093574, 30.478697907517983 ], [ 114.354443608590714, 30.478686938833732 ] ] ] ] } },
{ "type": "Feature", "properties": { "Id": 0 }, "geometry": { "type": "MultiPolygon", "coordinates": [ [ [ [ 114.350783629831881, 30.476041866221919 ], [ 114.350781250370801, 30.47611800897414 ], [ 114.351178620358951, 30.47611562951306 ], [ 114.351173861436791, 30.476044245682829 ], [ 114.350783629831881, 30.476041866221919 ] ] ] ] } },
{ "type": "Feature", "properties": { "Id": 0 }, "geometry": { "type": "MultiPolygon", "coordinates": [ [ [ [ 114.350793528389772, 30.478758335048894 ], [ 114.350968276006029, 30.478759477190181 ], [ 114.350971702429774, 30.478719502245269 ], [ 114.350792386248486, 30.47871721796264 ], [ 114.350793528389772, 30.478758335048894 ] ] ] ] } },
{ "type": "Feature", "properties": { "Id": 0 }, "geometry": { "type": "MultiPolygon", "coordinates": [ [ [ [ 114.352304240244621, 30.479424363209887 ], [ 114.35260401627761, 30.479427650772948 ], [ 114.352601633218796, 30.479354215537114 ], [ 114.352462800000126, 30.47935740000014 ], [ 114.352414900000099, 30.4793555 ], [ 114.352304200593153, 30.479351836076034 ], [ 114.352304240244621, 30.479424363209887 ] ] ] ] } },
{ "type": "Feature", "properties": { "Id": 0 }, "geometry": { "type": "MultiPolygon", "coordinates": [ [ [ [ 114.351254016491339, 30.47968468152186 ], [ 114.351606126957563, 30.479682246035338 ], [ 114.351610825655939, 30.479606914295914 ], [ 114.35125049522992, 30.479615186333945 ], [ 114.351254016491339, 30.47968468152186 ] ] ] ] } },
{ "type": "Feature", "properties": { "Id": 0 }, "geometry": { "type": "MultiPolygon", "coordinates": [ [ [ [ 114.357709499999942, 30.478897300000085 ], [ 114.357680354789636, 30.478939237537588 ], [ 114.357858814365272, 30.479013000828729 ], [ 114.357870400000138, 30.478966599999922 ], [ 114.357709499999942, 30.478897300000085 ] ] ] ] } },
{ "type": "Feature", "properties": { "Id": 0 }, "geometry": { "type": "MultiPolygon", "coordinates": [ [ [ [ 114.357214500000055, 30.479777500000068 ], [ 114.3574532, 30.47987459999996 ], [ 114.357487618448204, 30.479814879187813 ], [ 114.357244913425575, 30.4797173212865 ], [ 114.357214500000055, 30.479777500000068 ] ] ] ] } },
{ "type": "Feature", "properties": { "Id": 0 }, "geometry": { "type": "MultiPolygon", "coordinates": [ [ [ [ 114.354182700000024, 30.479433200000017 ], [ 114.35430190000011, 30.479432 ], [ 114.354302599999983, 30.479482599999983 ], [ 114.3545421, 30.479480200000012 ], [ 114.354545081789979, 30.479463870618076 ], [ 114.354345207065421, 30.479461586335447 ], [ 114.354345207065421, 30.479395342141117 ], [ 114.354299521414077, 30.479398768564863 ], [ 114.354183023003316, 30.479398768564863 ], [ 114.354182700000024, 30.479433200000017 ] ] ] ] } },
{ "type": "Feature", "properties": { "Id": 0 }, "geometry": { "type": "MultiPolygon", "coordinates": [ [ [ [ 114.353171739820823, 30.479284010536219 ], [ 114.35317109999994, 30.479328100000032 ], [ 114.353427900000042, 30.479330900000093 ], [ 114.353427618133423, 30.479319334913953 ], [ 114.353171739820823, 30.479284010536219 ] ] ] ] } },
{ "type": "Feature", "properties": { "Id": 0 }, "geometry": { "type": "MultiPolygon", "coordinates": [ [ [ [ 114.357524799999965, 30.474933 ], [ 114.357578313983709, 30.474933199196528 ], [ 114.357580217552595, 30.474746649453607 ], [ 114.357526, 30.474749899999949 ], [ 114.357524799999965, 30.474933 ] ] ] ] } },
{ "type": "Feature", "properties": { "Id": 0 }, "geometry": { "type": "MultiPolygon", "coordinates": [ [ [ [ 114.34578244791885, 30.476006128075255 ], [ 114.346082259132345, 30.476005616451971 ], [ 114.346099381651811, 30.47593717311014 ], [ 114.345782437445791, 30.475934317757037 ], [ 114.34578244791885, 30.476006128075255 ] ] ] ] } },
{ "type": "Feature", "properties": { "Id": 0 }, "geometry": { "type": "MultiPolygon", "coordinates": [ [ [ [ 114.351474700790618, 30.47521921748222 ], [ 114.351440247770597, 30.474992623438993 ], [ 114.351392, 30.474993300000165 ], [ 114.351443000000131, 30.475219800000104 ], [ 114.351474700790618, 30.47521921748222 ] ] ] ] } },
{ "type": "Feature", "properties": { "Id": 0 }, "geometry": { "type": "MultiPolygon", "coordinates": [ [ [ [ 114.344371509065809, 30.476046239673224 ], [ 114.344382523763215, 30.476083880124349 ], [ 114.344522756481638, 30.476085562829496 ], [ 114.344511611729899, 30.476043193963221 ], [ 114.344371509065809, 30.476046239673224 ] ] ] ] } },
{ "type": "Feature", "properties": { "Id": 0 }, "geometry": { "type": "MultiPolygon", "coordinates": [ [ [ [ 114.344843933376865, 30.478073366698425 ], [ 114.343793499999947, 30.478070500000058 ], [ 114.343789765757833, 30.478120233404638 ], [ 114.34484624644449, 30.478124992326627 ], [ 114.344843933376865, 30.478073366698425 ] ] ] ] } },
{ "type": "Feature", "properties": { "Id": 0 }, "geometry": { "type": "MultiPolygon", "coordinates": [ [ [ [ 114.338451, 30.476649500000065 ], [ 114.338473336032621, 30.476702312591328 ], [ 114.339165759185448, 30.476530991398931 ], [ 114.339156900000035, 30.476483900000062 ], [ 114.338451, 30.476649500000065 ] ] ] ] } },
{ "type": "Feature", "properties": { "Id": 0 }, "geometry": { "type": "MultiPolygon", "coordinates": [ [ [ [ 114.346489345932582, 30.47624142980078 ], [ 114.346665996284514, 30.476244523094351 ], [ 114.34666459564653, 30.476214700751541 ], [ 114.346492513026533, 30.476210132186281 ], [ 114.346489345932582, 30.47624142980078 ] ] ] ] } },
{ "type": "Feature", "properties": { "Id": 0 }, "geometry": { "type": "MultiPolygon", "coordinates": [ [ [ [ 114.34920870000019, 30.475600900000018 ], [ 114.349217852484117, 30.475670470430316 ], [ 114.349554784162592, 30.475647627604701 ], [ 114.349552166821582, 30.475594252819405 ], [ 114.349429156405677, 30.475596633464079 ], [ 114.34920870000019, 30.475600900000018 ] ] ] ] } },
{ "type": "Feature", "properties": { "Id": 0 }, "geometry": { "type": "MultiPolygon", "coordinates": [ [ [ [ 114.35660344563712, 30.471301494488216 ], [ 114.356831873893611, 30.471240580286519 ], [ 114.356810934636883, 30.471172051809617 ], [ 114.356582506380278, 30.471227255304882 ], [ 114.35660344563712, 30.471301494488216 ] ] ] ] } },
{ "type": "Feature", "properties": { "Id": 0 }, "geometry": { "type": "MultiPolygon", "coordinates": [ [ [ [ 114.357332205722173, 30.471133631309726 ], [ 114.357320961920323, 30.471090104984796 ], [ 114.356900402370684, 30.471154919690207 ], [ 114.356911823783435, 30.471210123185699 ], [ 114.357332205722173, 30.471133631309726 ] ] ] ] } },
{ "type": "Feature", "properties": { "Id": 0 }, "geometry": { "type": "MultiPolygon", "coordinates": [ [ [ [ 114.357399137397465, 30.471116848314125 ], [ 114.358337596818046, 30.470953141396933 ], [ 114.358316657561318, 30.47090745574576 ], [ 114.357380101709396, 30.47106164481886 ], [ 114.357399137397465, 30.471116848314125 ] ] ] ] } },
{ "type": "Feature", "properties": { "Id": 0 }, "geometry": { "type": "MultiPolygon", "coordinates": [ [ [ [ 114.350101005316446, 30.478365599280721 ], [ 114.349885424544709, 30.478366717659355 ], [ 114.349883102192052, 30.478418176821435 ], [ 114.350104392065646, 30.478422935743424 ], [ 114.350101005316446, 30.478365599280721 ] ] ] ] } },
{ "type": "Feature", "properties": { "Id": 0 }, "geometry": { "type": "MultiPolygon", "coordinates": [ [ [ [ 114.349795062134831, 30.478413417899446 ], [ 114.349790324541232, 30.478366857990977 ], [ 114.349571479914971, 30.478365601913083 ], [ 114.349573772261351, 30.478408658977344 ], [ 114.349795062134831, 30.478413417899446 ] ] ] ] } },
{ "type": "Feature", "properties": { "Id": 0 }, "geometry": { "type": "MultiPolygon", "coordinates": [ [ [ [ 114.349309803893675, 30.478362507412953 ], [ 114.348764826975412, 30.478355549037076 ], [ 114.348762376058289, 30.478411038438367 ], [ 114.349304893167755, 30.478411038438367 ], [ 114.349309803893675, 30.478362507412953 ] ] ] ] } },
{ "type": "Feature", "properties": { "Id": 0 }, "geometry": { "type": "MultiPolygon", "coordinates": [ [ [ [ 114.348571603547498, 30.478353243272579 ], [ 114.34826443278007, 30.478349941133047 ], [ 114.348264592815895, 30.478404058685953 ], [ 114.348566784363584, 30.478408817608113 ], [ 114.348571603547498, 30.478353243272579 ] ] ] ] } },
{ "type": "Feature", "properties": { "Id": 0 }, "geometry": { "type": "MultiPolygon", "coordinates": [ [ [ [ 114.348286959749316, 30.478577400000063 ], [ 114.348282200827384, 30.478622493206387 ], [ 114.348574874531096, 30.478622493206387 ], [ 114.348553459381947, 30.478577400000063 ], [ 114.34841069172171, 30.478577400000063 ], [ 114.348286959749316, 30.478577400000063 ] ] ] ] } },
{ "type": "Feature", "properties": { "Id": 0 }, "geometry": { "type": "MultiPolygon", "coordinates": [ [ [ [ 114.348286965666148, 30.478790378643509 ], [ 114.348289339210396, 30.478827126852934 ], [ 114.348584392375074, 30.478827126852934 ], [ 114.348589700000161, 30.478790899999979 ], [ 114.348434479517664, 30.478790632685786 ], [ 114.348286965666148, 30.478790378643509 ] ] ] ] } },
{ "type": "Feature", "properties": { "Id": 0 }, "geometry": { "type": "MultiPolygon", "coordinates": [ [ [ [ 114.351971438619444, 30.477536697224934 ], [ 114.351440379050132, 30.477539070519526 ], [ 114.351440411831163, 30.477580669999668 ], [ 114.351971507527651, 30.477580669999668 ], [ 114.351971438619444, 30.477536697224934 ] ] ] ] } },
{ "type": "Feature", "properties": { "Id": 0 }, "geometry": { "type": "MultiPolygon", "coordinates": [ [ [ [ 114.348654678696903, 30.47755120489893 ], [ 114.348664699999972, 30.477743299999986 ], [ 114.348729061431186, 30.477743589342936 ], [ 114.348714818564304, 30.477550450844831 ], [ 114.348654678696903, 30.47755120489893 ] ] ] ] } },
{ "type": "Feature", "properties": { "Id": 0 }, "geometry": { "type": "MultiPolygon", "coordinates": [ [ [ [ 114.348562200000174, 30.477559 ], [ 114.34848710000017, 30.477559 ], [ 114.348496768518089, 30.477783898134817 ], [ 114.348574906257227, 30.477784589807811 ], [ 114.348562200000174, 30.477559 ] ] ] ] } },
{ "type": "Feature", "properties": { "Id": 0 }, "geometry": { "type": "MultiPolygon", "coordinates": [ [ [ [ 114.349322997603053, 30.475999542653994 ], [ 114.349323008797455, 30.476045679704782 ], [ 114.349671361888568, 30.476062811823965 ], [ 114.349665649231383, 30.475998920173254 ], [ 114.349322997603053, 30.475999542653994 ] ] ] ] } },
{ "type": "Feature", "properties": { "Id": 0 }, "geometry": { "type": "MultiPolygon", "coordinates": [ [ [ [ 114.349782715203332, 30.475998784842204 ], [ 114.349782720663711, 30.476048535057885 ], [ 114.350062545278092, 30.476068522530397 ], [ 114.350067700000068, 30.475998700000048 ], [ 114.349782715203332, 30.475998784842204 ] ] ] ] } },
{ "type": "Feature", "properties": { "Id": 0 }, "geometry": { "type": "MultiPolygon", "coordinates": [ [ [ [ 114.352849500000161, 30.474696099999903 ], [ 114.352842499999952, 30.473778100000175 ], [ 114.352773847089566, 30.473781319378872 ], [ 114.352797185252825, 30.474683913641002 ], [ 114.352849500000161, 30.474696099999903 ] ] ] ] } },
{ "type": "Feature", "properties": { "Id": 0 }, "geometry": { "type": "MultiPolygon", "coordinates": [ [ [ [ 114.347619024566256, 30.474159417361307 ], [ 114.347618300000022, 30.474253800000099 ], [ 114.347908923472346, 30.474255475063217 ], [ 114.347924266439804, 30.474167095240659 ], [ 114.347619024566256, 30.474159417361307 ] ] ] ] } },
{ "type": "Feature", "properties": { "Id": 0 }, "geometry": { "type": "MultiPolygon", "coordinates": [ [ [ [ 114.34578244791885, 30.476006128075255 ], [ 114.345782989480654, 30.476066856907721 ], [ 114.346077090860945, 30.476064001554448 ], [ 114.346082259132345, 30.476005616451971 ], [ 114.34578244791885, 30.476006128075255 ] ] ] ] } },
{ "type": "Feature", "properties": { "Id": 0 }, "geometry": { "type": "MultiPolygon", "coordinates": [ [ [ [ 114.34469747008518, 30.476009729113684 ], [ 114.34469795526195, 30.476061146201346 ], [ 114.345023465527447, 30.476044014082163 ], [ 114.345022909379395, 30.475991340921553 ], [ 114.344864322572107, 30.476000301501017 ], [ 114.34469747008518, 30.476009729113684 ] ] ] ] } },
{ "type": "Feature", "properties": { "Id": 0 }, "geometry": { "type": "MultiPolygon", "coordinates": [ [ [ [ 114.343564656550029, 30.476088248248857 ], [ 114.342969904821416, 30.476182141628669 ], [ 114.342728753919005, 30.476230686456233 ], [ 114.342429953675946, 30.476292671161218 ], [ 114.341953839426424, 30.476396332102411 ], [ 114.341616, 30.476473800000122 ], [ 114.341477038012044, 30.476525677425855 ], [ 114.341495200748113, 30.476574157994207 ], [ 114.34160465595437, 30.476540845540057 ], [ 114.34196633402712, 30.476455184943745 ], [ 114.342437467306354, 30.476374283269763 ], [ 114.342737279393191, 30.476298140517429 ], [ 114.343570090745175, 30.476155372857136 ], [ 114.343564656550029, 30.476088248248857 ] ] ] ] } },
{ "type": "Feature", "properties": { "Id": 0 }, "geometry": { "type": "MultiPolygon", "coordinates": [ [ [ [ 114.342605400000025, 30.478869400000065 ], [ 114.343407800000023, 30.478874 ], [ 114.343414473995267, 30.478822272752552 ], [ 114.342596642804438, 30.478825068287733 ], [ 114.342605400000025, 30.478869400000065 ] ] ] ] } },
{ "type": "Feature", "properties": { "Id": 0 }, "geometry": { "type": "MultiPolygon", "coordinates": [ [ [ [ 114.341758700000014, 30.479021200000034 ], [ 114.342418800000132, 30.479012100000148 ], [ 114.342423904378506, 30.478948384185856 ], [ 114.341752896374828, 30.478967419873868 ], [ 114.341758700000014, 30.479021200000034 ] ] ] ] } },
{ "type": "Feature", "properties": { "Id": 0 }, "geometry": { "type": "MultiPolygon", "coordinates": [ [ [ [ 114.345671400000128, 30.476571900000067 ], [ 114.3461122, 30.476580300000023 ], [ 114.346110799891676, 30.476510229808412 ], [ 114.345672979066762, 30.476510229808412 ], [ 114.345671400000128, 30.476571900000067 ] ] ] ] } },
{ "type": "Feature", "properties": { "Id": 0 }, "geometry": { "type": "MultiPolygon", "coordinates": [ [ [ [ 114.345097099999975, 30.4765602 ], [ 114.345502799999963, 30.476563700000099 ], [ 114.345494519491126, 30.476510229808412 ], [ 114.345097149503317, 30.47650547088648 ], [ 114.345097099999975, 30.4765602 ] ] ] ] } },
{ "type": "Feature", "properties": { "Id": 0 }, "geometry": { "type": "MultiPolygon", "coordinates": [ [ [ [ 114.3451083, 30.476333500000067 ], [ 114.345534200000088, 30.476336200000105 ], [ 114.34553972925039, 30.476269904246863 ], [ 114.345111426269227, 30.476272283707942 ], [ 114.3451083, 30.476333500000067 ] ] ] ] } }
]
}
